{"type":"FeatureCollection", "features": [
{"type":"Feature","geometry":{"type":"MultiPolygon","coordinates":[[[[-73.7524,40.7869],[-73.7512,40.7862],[-73.7498,40.7848],[-73.7482,40.7838],[-73.747,40.7841],[-73.7463,40.7831],[-73.7461,40.7823],[-73.7461,40.7811],[-73.7463,40.7805],[-73.7468,40.7804],[-73.7401,40.7762],[-73.7295,40.7697],[-73.7216,40.7648],[-73.7133,40.7597],[-73.7078,40.7562],[-73.7016,40.7525],[-73.7008,40.745],[-73.7004,40.741],[-73.7004,40.7392],[-73.7005,40.7391],[-73.7052,40.7319],[-73.7079,40.7278],[-73.7105,40.7272],[-73.7165,40.7265],[-73.7209,40.7253],[-73.7255,40.7241],[-73.7295,40.7226],[-73.7303,40.7222],[-73.7292,40.7192],[-73.7285,40.7167],[-73.727,40.7107],[-73.727,40.7095],[-73.7268,40.7028],[-73.7268,40.702],[-73.7265,40.6969],[-73.7263,40.6906],[-73.7259,40.6862],[-73.7258,40.684],[-73.7259,40.6832],[-73.7256,40.6796],[-73.7262,40.6774],[-73.7275,40.6742],[-73.7283,40.6681],[-73.7283,40.6664],[-73.7278,40.6651],[-73.7278,40.6632],[-73.7276,40.6611],[-73.7264,40.6592],[-73.7248,40.654],[-73.725,40.6527],[-73.7232,40.6524],[-73.7238,40.6514],[-73.7245,40.6514],[-73.7255,40.6518],[-73.725,40.6527],[-73.7285,40.651],[-73.7297,40.6506],[-73.7322,40.6501],[-73.7351,40.6497],[-73.739,40.6482],[-73.7391,40.6478],[-73.7385,40.6463],[-73.7378,40.6451],[-73.7374,40.6439],[-73.7366,40.643],[-73.7369,40.6424],[-73.7377,40.6423],[-73.7383,40.6429],[-73.7392,40.6428],[-73.7405,40.6431],[-73.7409,40.6421],[-73.7392,40.6411],[-73.7375,40.64],[-73.7365,40.6388],[-73.736,40.6378],[-73.7362,40.6372],[-73.737,40.6373],[-73.7363,40.6379],[-73.7367,40.6387],[-73.7384,40.6404],[-73.7392,40.6407],[-73.7414,40.6421],[-73.7414,40.6405],[-73.7423,40.6401],[-73.7395,40.6357],[-73.74,40.6351],[-73.7417,40.6348],[-73.7401,40.6351],[-73.7401,40.6349],[-73.7421,40.6347],[-73.7429,40.635],[-73.7427,40.6357],[-73.7423,40.6364],[-73.7414,40.6373],[-73.7429,40.6379],[-73.7435,40.6376],[-73.744,40.6371],[-73.7441,40.6357],[-73.7448,40.6349],[-73.7449,40.6344],[-73.7454,40.6336],[-73.7448,40.6332],[-73.7446,40.6327],[-73.7439,40.6318],[-73.7423,40.6314],[-73.7416,40.6318],[-73.7406,40.6333],[-73.7403,40.6332],[-73.74,40.6321],[-73.7413,40.631],[-73.7417,40.6309],[-73.7433,40.6308],[-73.7459,40.6315],[-73.7466,40.631],[-73.7466,40.6307],[-73.7456,40.6292],[-73.7457,40.6288],[-73.7469,40.629],[-73.7481,40.6295],[-73.7485,40.6295],[-73.7502,40.6282],[-73.7509,40.6278],[-73.7537,40.6267],[-73.7555,40.6262],[-73.7564,40.6253],[-73.7559,40.6251],[-73.7533,40.6236],[-73.7528,40.6229],[-73.7535,40.6226],[-73.756,40.6229],[-73.7581,40.6229],[-73.759,40.6227],[-73.7601,40.6228],[-73.7613,40.6224],[-73.7625,40.6226],[-73.763,40.6232],[-73.7643,40.623],[-73.7643,40.6227],[-73.7632,40.622],[-73.7639,40.6214],[-73.7651,40.6213],[-73.7653,40.621],[-73.7649,40.6205],[-73.7652,40.6201],[-73.7662,40.6201],[-73.7667,40.6204],[-73.7675,40.6205],[-73.7668,40.6153],[-73.7652,40.6158],[-73.7639,40.6166],[-73.763,40.6175],[-73.762,40.6178],[-73.7607,40.6176],[-73.7589,40.6182],[-73.758,40.6182],[-73.7576,40.6169],[-73.7563,40.6168],[-73.7555,40.6161],[-73.7582,40.6167],[-73.7602,40.6159],[-73.7618,40.6154],[-73.763,40.6149],[-73.7633,40.6146],[-73.7632,40.6141],[-73.7612,40.6128],[-73.7606,40.6125],[-73.7587,40.6123],[-73.7574,40.6125],[-73.757,40.6119],[-73.7564,40.6117],[-73.7547,40.6119],[-73.7545,40.6111],[-73.7547,40.6107],[-73.7552,40.6106],[-73.7572,40.611],[-73.7547,40.6104],[-73.7535,40.6105],[-73.7501,40.6116],[-73.7491,40.6118],[-73.7475,40.6119],[-73.7469,40.6118],[-73.7455,40.6118],[-73.7445,40.6102],[-73.7436,40.6075],[-73.7406,40.6049],[-73.7384,40.6027],[-73.7384,40.5976],[-73.7385,40.5959],[-73.738,40.5945],[-73.7368,40.5946],[-73.736,40.595],[-73.7356,40.5986],[-73.7356,40.6008],[-73.7364,40.602],[-73.7353,40.6036],[-73.7342,40.6043],[-73.7324,40.6041],[-73.7313,40.6044],[-73.7315,40.6053],[-73.7282,40.6063],[-73.728,40.6064],[-73.7275,40.6079],[-73.7272,40.6078],[-73.7277,40.6049],[-73.7279,40.6045],[-73.7287,40.6039],[-73.7309,40.6031],[-73.7319,40.6025],[-73.7332,40.6014],[-73.7346,40.601],[-73.735,40.598],[-73.735,40.5954],[-73.7345,40.5952],[-73.7309,40.5945],[-73.7272,40.594],[-73.7265,40.5942],[-73.7248,40.594],[-73.7226,40.5943],[-73.7203,40.5942],[-73.7185,40.5938],[-73.7172,40.5949],[-73.7161,40.5949],[-73.715,40.5946],[-73.7132,40.5935],[-73.7121,40.5933],[-73.7104,40.5932],[-73.7075,40.5927],[-73.7041,40.5917],[-73.7024,40.5919],[-73.6998,40.592],[-73.6963,40.5924],[-73.6955,40.5928],[-73.6936,40.5926],[-73.6914,40.5927],[-73.6884,40.593],[-73.6876,40.5934],[-73.6869,40.5941],[-73.6866,40.596],[-73.6866,40.5992],[-73.6863,40.6002],[-73.6863,40.6007],[-73.6868,40.6012],[-73.6881,40.601],[-73.6893,40.6013],[-73.6908,40.6011],[-73.6915,40.6014],[-73.6921,40.6018],[-73.6928,40.6028],[-73.6931,40.6037],[-73.6939,40.6047],[-73.695,40.6051],[-73.6961,40.6049],[-73.6992,40.6039],[-73.7001,40.6031],[-73.7002,40.6023],[-73.699,40.6011],[-73.6987,40.6005],[-73.6987,40.5993],[-73.6988,40.5986],[-73.6995,40.5973],[-73.7003,40.5974],[-73.7003,40.5981],[-73.6999,40.5989],[-73.7001,40.5998],[-73.6998,40.6002],[-73.6999,40.6008],[-73.7006,40.6014],[-73.7019,40.6024],[-73.7026,40.6024],[-73.7037,40.6021],[-73.7048,40.6022],[-73.7054,40.6025],[-73.7058,40.6032],[-73.7071,40.6035],[-73.7083,40.604],[-73.7081,40.6044],[-73.7057,40.6043],[-73.7049,40.6049],[-73.7045,40.6055],[-73.7043,40.6066],[-73.7051,40.6075],[-73.7049,40.6085],[-73.7044,40.609],[-73.7046,40.6093],[-73.7058,40.6088],[-73.7068,40.6088],[-73.7076,40.6089],[-73.7073,40.6097],[-73.7069,40.6103],[-73.706,40.6106],[-73.7059,40.6113],[-73.7069,40.6115],[-73.7075,40.6114],[-73.708,40.6109],[-73.7083,40.6116],[-73.708,40.612],[-73.7061,40.6132],[-73.7059,40.6141],[-73.7066,40.6151],[-73.7067,40.6165],[-73.7061,40.617],[-73.7061,40.6175],[-73.7066,40.6182],[-73.7078,40.6187],[-73.7082,40.6194],[-73.7102,40.6203],[-73.7107,40.6202],[-73.7114,40.6195],[-73.7121,40.6198],[-73.7114,40.6219],[-73.7111,40.622],[-73.7093,40.621],[-73.7074,40.6205],[-73.7071,40.6202],[-73.7072,40.6194],[-73.7068,40.619],[-73.7053,40.6184],[-73.7053,40.6176],[-73.7057,40.6158],[-73.7042,40.6146],[-73.7028,40.6154],[-73.702,40.6156],[-73.7016,40.6161],[-73.701,40.6184],[-73.7004,40.6193],[-73.7001,40.6202],[-73.6992,40.6201],[-73.6985,40.6216],[-73.6978,40.6223],[-73.6961,40.6228],[-73.694,40.6237],[-73.694,40.6241],[-73.692,40.6251],[-73.6917,40.6255],[-73.691,40.6251],[-73.6919,40.6239],[-73.689,40.6233],[-73.6882,40.6233],[-73.6882,40.6251],[-73.6893,40.6273],[-73.6898,40.628],[-73.6907,40.629],[-73.6921,40.6299],[-73.6923,40.6304],[-73.6921,40.6319],[-73.6934,40.6336],[-73.6933,40.6341],[-73.6924,40.6363],[-73.6924,40.6376],[-73.6916,40.6378],[-73.6912,40.6376],[-73.6923,40.6343],[-73.6922,40.6334],[-73.6907,40.6311],[-73.6904,40.6308],[-73.6899,40.6298],[-73.6884,40.6275],[-73.6881,40.6268],[-73.6875,40.626],[-73.6867,40.6254],[-73.6855,40.6256],[-73.6849,40.6261],[-73.6838,40.6262],[-73.6834,40.6267],[-73.6835,40.6275],[-73.6831,40.6278],[-73.6824,40.6295],[-73.6815,40.63],[-73.6805,40.63],[-73.6798,40.6296],[-73.6807,40.6293],[-73.6812,40.6296],[-73.6819,40.6293],[-73.6819,40.6283],[-73.6826,40.6276],[-73.6827,40.6267],[-73.6832,40.626],[-73.6831,40.6256],[-73.6822,40.6256],[-73.6811,40.6261],[-73.6798,40.6273],[-73.6791,40.6282],[-73.6774,40.6298],[-73.676,40.6307],[-73.6751,40.6318],[-73.6747,40.6326],[-73.6737,40.634],[-73.6725,40.635],[-73.6721,40.6362],[-73.6706,40.6376],[-73.6705,40.6374],[-73.6718,40.6363],[-73.672,40.6353],[-73.6723,40.6347],[-73.673,40.6342],[-73.6739,40.633],[-73.6744,40.6318],[-73.6755,40.6306],[-73.6765,40.6293],[-73.6765,40.6291],[-73.6753,40.6287],[-73.672,40.6283],[-73.6712,40.6287],[-73.6702,40.6281],[-73.6689,40.6279],[-73.6681,40.6287],[-73.6678,40.6288],[-73.667,40.6284],[-73.6669,40.6266],[-73.6674,40.6264],[-73.6674,40.6259],[-73.6668,40.6256],[-73.6666,40.6243],[-73.6669,40.6236],[-73.6668,40.6229],[-73.6651,40.6224],[-73.663,40.6224],[-73.6628,40.6227],[-73.6625,40.6251],[-73.6623,40.6258],[-73.6614,40.6271],[-73.6614,40.628],[-73.6607,40.6288],[-73.6599,40.63],[-73.6599,40.6318],[-73.6596,40.6324],[-73.6597,40.6337],[-73.6591,40.6345],[-73.6578,40.6349],[-73.6577,40.6355],[-73.6584,40.6357],[-73.66,40.6359],[-73.6605,40.6363],[-73.6601,40.6372],[-73.6591,40.6381],[-73.6597,40.6391],[-73.6595,40.6397],[-73.6584,40.6397],[-73.6574,40.6401],[-73.6571,40.6396],[-73.6577,40.6391],[-73.6585,40.6378],[-73.6599,40.6367],[-73.6599,40.6363],[-73.6593,40.636],[-73.6571,40.6362],[-73.6568,40.6369],[-73.6561,40.6364],[-73.6567,40.6356],[-73.6578,40.6345],[-73.6576,40.6339],[-73.6591,40.6312],[-73.6588,40.63],[-73.6591,40.6294],[-73.6604,40.628],[-73.6608,40.6273],[-73.6609,40.6257],[-73.6607,40.6246],[-73.6609,40.6239],[-73.6595,40.6233],[-73.6585,40.6234],[-73.6581,40.6239],[-73.6587,40.6245],[-73.6588,40.6251],[-73.6579,40.6262],[-73.6575,40.6264],[-73.6564,40.6277],[-73.6558,40.6283],[-73.654,40.6293],[-73.6545,40.6286],[-73.6553,40.6279],[-73.6562,40.6273],[-73.657,40.6263],[-73.6583,40.6251],[-73.6583,40.6246],[-73.6577,40.6243],[-73.6575,40.6238],[-73.6564,40.6235],[-73.6559,40.6243],[-73.6542,40.6277],[-73.654,40.6276],[-73.6559,40.6237],[-73.6556,40.6229],[-73.6546,40.6224],[-73.6535,40.6203],[-73.6532,40.6199],[-73.6524,40.6169],[-73.65,40.6172],[-73.65,40.6218],[-73.6505,40.6238],[-73.65,40.6238],[-73.65,40.6254],[-73.6507,40.6281],[-73.6504,40.6281],[-73.65,40.627],[-73.65,40.6685],[-73.651,40.6673],[-73.6528,40.6681],[-73.653,40.6685],[-73.6516,40.6705],[-73.6509,40.6707],[-73.65,40.6706],[-73.65,40.6727],[-73.65,40.801],[-73.6507,40.8024],[-73.6518,40.8038],[-73.6525,40.8041],[-73.6528,40.8045],[-73.6534,40.8063],[-73.6521,40.8081],[-73.6524,40.8099],[-73.6544,40.811],[-73.6542,40.8125],[-73.6544,40.8135],[-73.6548,40.8148],[-73.6548,40.8152],[-73.6539,40.8165],[-73.6543,40.8178],[-73.6544,40.8207],[-73.6551,40.8222],[-73.6551,40.8226],[-73.6548,40.8237],[-73.6548,40.8241],[-73.6554,40.8245],[-73.657,40.8252],[-73.6572,40.8256],[-73.6568,40.8261],[-73.6555,40.8262],[-73.655,40.8269],[-73.6512,40.8278],[-73.6507,40.828],[-73.651,40.8285],[-73.6534,40.8289],[-73.6544,40.8289],[-73.6552,40.8292],[-73.6571,40.8309],[-73.6583,40.8326],[-73.6605,40.8346],[-73.6608,40.835],[-73.6616,40.8348],[-73.662,40.835],[-73.6618,40.8363],[-73.6627,40.8363],[-73.6622,40.8368],[-73.663,40.8378],[-73.6632,40.8378],[-73.6641,40.8389],[-73.6651,40.8397],[-73.6652,40.8407],[-73.6664,40.8414],[-73.6667,40.8426],[-73.6677,40.8428],[-73.6685,40.8433],[-73.6695,40.8457],[-73.6703,40.8469],[-73.673,40.8502],[-73.6742,40.8522],[-73.6761,40.8545],[-73.6767,40.8572],[-73.682,40.859],[-73.6832,40.8593],[-73.6843,40.8598],[-73.6862,40.8603],[-73.6886,40.8611],[-73.6909,40.862],[-73.6932,40.8627],[-73.6965,40.8639],[-73.6988,40.8645],[-73.7019,40.8656],[-73.7037,40.866],[-73.7053,40.8664],[-73.708,40.8675],[-73.7082,40.8675],[-73.7113,40.8688],[-73.7129,40.8692],[-73.7141,40.87],[-73.7175,40.8688],[-73.7192,40.8674],[-73.7196,40.8663],[-73.7205,40.8657],[-73.7217,40.8655],[-73.7237,40.8655],[-73.7282,40.8663],[-73.7297,40.8664],[-73.7305,40.8656],[-73.7302,40.8649],[-73.7292,40.8635],[-73.7292,40.8622],[-73.7284,40.8606],[-73.7277,40.859],[-73.7267,40.8568],[-73.728,40.8529],[-73.7306,40.852],[-73.7311,40.8516],[-73.7324,40.8511],[-73.7345,40.8502],[-73.7351,40.85],[-73.7371,40.8497],[-73.7376,40.8484],[-73.7338,40.8452],[-73.7307,40.8428],[-73.73,40.8422],[-73.7296,40.8412],[-73.7296,40.8376],[-73.7296,40.8367],[-73.7287,40.8344],[-73.7278,40.8332],[-73.7272,40.8334],[-73.7273,40.8347],[-73.7286,40.8371],[-73.7285,40.8379],[-73.7282,40.8382],[-73.727,40.839],[-73.7254,40.8393],[-73.7242,40.8385],[-73.7221,40.8374],[-73.7219,40.8371],[-73.716,40.8382],[-73.7155,40.8384],[-73.7139,40.8387],[-73.7135,40.8403],[-73.713,40.8405],[-73.712,40.8412],[-73.7108,40.8408],[-73.7089,40.8414],[-73.7102,40.8402],[-73.7102,40.8399],[-73.7129,40.8391],[-73.712,40.8376],[-73.7114,40.8363],[-73.7106,40.8348],[-73.7083,40.8336],[-73.7079,40.8341],[-73.7078,40.8348],[-73.7067,40.8354],[-73.7062,40.8353],[-73.7056,40.836],[-73.7046,40.8365],[-73.7046,40.8369],[-73.7055,40.8371],[-73.7057,40.8383],[-73.7064,40.8395],[-73.706,40.8396],[-73.7052,40.8389],[-73.7047,40.839],[-73.7036,40.8371],[-73.7032,40.8368],[-73.7008,40.8351],[-73.7001,40.8344],[-73.6998,40.8336],[-73.7028,40.8322],[-73.7032,40.8298],[-73.7034,40.8295],[-73.7053,40.8237],[-73.7054,40.823],[-73.7054,40.8217],[-73.7043,40.8185],[-73.7039,40.818],[-73.704,40.8174],[-73.7045,40.8159],[-73.7037,40.8144],[-73.7041,40.8145],[-73.7046,40.8152],[-73.7052,40.8152],[-73.7055,40.8149],[-73.7066,40.8144],[-73.7076,40.8136],[-73.7109,40.8058],[-73.711,40.8037],[-73.7111,40.8033],[-73.711,40.8007],[-73.7106,40.8001],[-73.7096,40.8],[-73.7094,40.7993],[-73.7105,40.7991],[-73.7105,40.7981],[-73.7093,40.796],[-73.7092,40.7936],[-73.7098,40.7933],[-73.7104,40.7945],[-73.7106,40.7963],[-73.7111,40.7969],[-73.7122,40.7974],[-73.7129,40.7983],[-73.7137,40.8006],[-73.7147,40.8025],[-73.7154,40.8033],[-73.7163,40.8049],[-73.7167,40.8061],[-73.7159,40.8064],[-73.7153,40.8088],[-73.7164,40.8111],[-73.717,40.8121],[-73.717,40.8125],[-73.7177,40.8139],[-73.718,40.8142],[-73.7178,40.815],[-73.7172,40.8153],[-73.7219,40.8219],[-73.7267,40.8237],[-73.7278,40.8236],[-73.7283,40.8233],[-73.73,40.8235],[-73.7304,40.8242],[-73.7312,40.825],[-73.7312,40.8256],[-73.7319,40.8269],[-73.7359,40.8275],[-73.7383,40.8277],[-73.7389,40.8279],[-73.7412,40.831],[-73.7436,40.8327],[-73.744,40.8329],[-73.7464,40.8329],[-73.7496,40.8341],[-73.7501,40.8347],[-73.7502,40.8356],[-73.7506,40.8359],[-73.7519,40.8372],[-73.7529,40.838],[-73.7532,40.8382],[-73.7541,40.8372],[-73.7541,40.8358],[-73.7543,40.8352],[-73.755,40.8346],[-73.7567,40.8337],[-73.7568,40.8335],[-73.7567,40.8319],[-73.7563,40.8305],[-73.7557,40.8294],[-73.7536,40.8273],[-73.7535,40.8252],[-73.7527,40.8243],[-73.7528,40.8231],[-73.7532,40.8223],[-73.7535,40.8211],[-73.7546,40.8194],[-73.7572,40.8175],[-73.7585,40.817],[-73.7644,40.8119],[-73.7639,40.8109],[-73.7638,40.81],[-73.7634,40.8084],[-73.7636,40.8079],[-73.7636,40.8071],[-73.7632,40.8066],[-73.7623,40.8061],[-73.7608,40.8056],[-73.7602,40.8053],[-73.7593,40.8035],[-73.7582,40.8025],[-73.7554,40.8022],[-73.7545,40.8014],[-73.7531,40.7998],[-73.7525,40.7994],[-73.7519,40.7988],[-73.752,40.7976],[-73.7515,40.7982],[-73.7513,40.799],[-73.7506,40.7994],[-73.7488,40.8],[-73.7476,40.8],[-73.7466,40.7996],[-73.746,40.7984],[-73.7461,40.7978],[-73.7472,40.7991],[-73.7484,40.7992],[-73.7503,40.7987],[-73.7509,40.7979],[-73.752,40.7976],[-73.7534,40.7978],[-73.7538,40.7975],[-73.754,40.7959],[-73.7539,40.795],[-73.7534,40.7944],[-73.7531,40.7917],[-73.7532,40.7914],[-73.7524,40.7869]],[[-73.6562,40.7363],[-73.6562,40.7364],[-73.6523,40.7374],[-73.6515,40.7367],[-73.6515,40.7358],[-73.6547,40.735],[-73.655,40.7356],[-73.656,40.7359],[-73.6562,40.7363]],[[-73.7114,40.7627],[-73.7114,40.7633],[-73.7105,40.7641],[-73.7101,40.7647],[-73.7093,40.7648],[-73.7076,40.7654],[-73.7069,40.7656],[-73.7061,40.7642],[-73.7061,40.7638],[-73.7068,40.7629],[-73.7081,40.7629],[-73.709,40.7627],[-73.7101,40.7622],[-73.7111,40.7619],[-73.7114,40.7622],[-73.7114,40.7627]],[[-73.7242,40.6959],[-73.7241,40.6961],[-73.7203,40.6951],[-73.7185,40.6944],[-73.7189,40.6937],[-73.7223,40.6942],[-73.7232,40.6937],[-73.7242,40.6939],[-73.7242,40.6959]],[[-73.7099,40.5949],[-73.7092,40.596],[-73.7084,40.5961],[-73.7072,40.5955],[-73.7057,40.595],[-73.7048,40.5942],[-73.7048,40.5934],[-73.7057,40.5931],[-73.7061,40.5932],[-73.7069,40.5939],[-73.7074,40.5941],[-73.7095,40.594],[-73.7099,40.5943],[-73.7099,40.5949]],[[-73.7028,40.8142],[-73.7024,40.8145],[-73.7002,40.8145],[-73.6998,40.8141],[-73.6994,40.8128],[-73.6991,40.8115],[-73.6988,40.8108],[-73.6998,40.811],[-73.7009,40.8119],[-73.7027,40.813],[-73.7029,40.8134],[-73.7028,40.8142]]],[[[-73.65,40.6169],[-73.6518,40.6162],[-73.6521,40.6159],[-73.652,40.6147],[-73.6524,40.6141],[-73.652,40.6128],[-73.6523,40.6123],[-73.6526,40.6109],[-73.6541,40.61],[-73.6549,40.609],[-73.6558,40.6083],[-73.6571,40.6068],[-73.6589,40.6062],[-73.6592,40.6063],[-73.6601,40.606],[-73.6606,40.6061],[-73.6615,40.6058],[-73.6617,40.6017],[-73.6619,40.6003],[-73.662,40.5981],[-73.6616,40.5979],[-73.6616,40.5973],[-73.6619,40.5964],[-73.6601,40.5965],[-73.6595,40.5968],[-73.6581,40.5968],[-73.6573,40.5967],[-73.6565,40.5963],[-73.6556,40.5963],[-73.655,40.5967],[-73.6544,40.5968],[-73.6543,40.5959],[-73.6511,40.596],[-73.6512,40.5966],[-73.651,40.5974],[-73.65,40.5975],[-73.65,40.5992],[-73.6539,40.5998],[-73.6536,40.6001],[-73.65,40.5995],[-73.65,40.6169]]],[[[-73.65,40.5949],[-73.6531,40.5949],[-73.6589,40.5947],[-73.6686,40.5936],[-73.6688,40.5937],[-73.6701,40.5935],[-73.6831,40.592],[-73.6865,40.589],[-73.6974,40.589],[-73.7061,40.5894],[-73.7091,40.5895],[-73.7096,40.5892],[-73.7098,40.5887],[-73.711,40.5886],[-73.711,40.5889],[-73.71,40.5889],[-73.7101,40.5896],[-73.7115,40.5897],[-73.7124,40.5894],[-73.7126,40.5881],[-73.7129,40.5881],[-73.7129,40.589],[-73.7138,40.589],[-73.7293,40.5901],[-73.7388,40.5927],[-73.7407,40.5927],[-73.7432,40.5928],[-73.7444,40.5922],[-73.7463,40.5918],[-73.7496,40.5895],[-73.7545,40.5859],[-73.7549,40.5854],[-73.7543,40.5845],[-73.7496,40.5857],[-73.7437,40.5867],[-73.7416,40.5868],[-73.7386,40.5865],[-73.729,40.5858],[-73.7274,40.5856],[-73.7144,40.5845],[-73.7125,40.5845],[-73.7117,40.5842],[-73.7051,40.5837],[-73.6778,40.5833],[-73.6769,40.5834],[-73.676,40.5833],[-73.6742,40.5834],[-73.673,40.5833],[-73.6681,40.5834],[-73.6644,40.5831],[-73.6623,40.583],[-73.65,40.5829],[-73.65,40.5949]]],[[[-73.65,40.8311],[-73.65,40.8522],[-73.6521,40.8503],[-73.6524,40.8498],[-73.6539,40.8444],[-73.6537,40.843],[-73.6536,40.8398],[-73.6533,40.8375],[-73.6531,40.8373],[-73.6531,40.836],[-73.6524,40.8359],[-73.6516,40.8347],[-73.6502,40.833],[-73.651,40.8326],[-73.65,40.8311]]],[[[-73.65,40.857],[-73.65,40.8809],[-73.6522,40.8792],[-73.654,40.8785],[-73.6544,40.8782],[-73.6551,40.8715],[-73.6547,40.8699],[-73.6547,40.8692],[-73.6552,40.8667],[-73.6558,40.8649],[-73.6537,40.8627],[-73.6532,40.8625],[-73.653,40.8619],[-73.6526,40.8584],[-73.65,40.857]]],[[[-74.267,40.4791],[-74.2688,40.4822],[-74.2696,40.4834],[-74.2707,40.4842],[-74.2713,40.4849],[-74.2718,40.4846],[-74.2725,40.4847],[-74.2738,40.484],[-74.274,40.4845],[-74.2747,40.4848],[-74.2745,40.4854],[-74.2756,40.4858],[-74.2756,40.4867],[-74.2746,40.4872],[-74.2746,40.4875],[-74.2755,40.4884],[-74.2721,40.4895],[-74.2728,40.4903],[-74.2749,40.4892],[-74.2755,40.4898],[-74.2767,40.4894],[-74.2759,40.4905],[-74.2761,40.4912],[-74.2791,40.4913],[-74.2822,40.4927],[-74.2824,40.4933],[-74.283,40.493],[-74.2839,40.4931],[-74.2853,40.4928],[-74.2863,40.4928],[-74.2872,40.4933],[-74.2888,40.4935],[-74.2899,40.4947],[-74.2908,40.4965],[-74.2914,40.4968],[-74.2912,40.4975],[-74.2921,40.4977],[-74.2932,40.4976],[-74.2931,40.4982],[-74.2939,40.4993],[-74.2936,40.5001],[-74.2936,40.5012],[-74.2926,40.5023],[-74.2919,40.5028],[-74.2912,40.5039],[-74.2915,40.5048],[-74.2926,40.5054],[-74.2936,40.5057],[-74.2949,40.506],[-74.2969,40.5062],[-74.298,40.5064],[-74.2994,40.5064],[-74.3,40.5063],[-74.3,40.47],[-74.2656,40.47],[-74.2665,40.4708],[-74.2666,40.4715],[-74.2662,40.4719],[-74.267,40.4791]]],[[[-74.3,40.512],[-74.2991,40.5119],[-74.2952,40.5121],[-74.2925,40.5112],[-74.2916,40.5108],[-74.289,40.5094],[-74.2879,40.5092],[-74.2873,40.5088],[-74.2855,40.5072],[-74.2855,40.5069],[-74.2848,40.5063],[-74.284,40.5053],[-74.2832,40.5047],[-74.2827,40.5036],[-74.2834,40.5032],[-74.2833,40.5025],[-74.2839,40.5019],[-74.2843,40.5011],[-74.2835,40.5004],[-74.2809,40.5007],[-74.2785,40.5006],[-74.2771,40.5004],[-74.2722,40.4999],[-74.2717,40.4997],[-74.2705,40.4996],[-74.2691,40.4992],[-74.2682,40.4992],[-74.2664,40.4998],[-74.2649,40.5018],[-74.2639,40.5023],[-74.2635,40.5031],[-74.2628,40.5038],[-74.2625,40.5059],[-74.2621,40.506],[-74.2612,40.5078],[-74.2608,40.5089],[-74.2612,40.5091],[-74.2608,40.5101],[-74.2611,40.5106],[-74.2604,40.512],[-74.2601,40.5131],[-74.259,40.5136],[-74.2578,40.5161],[-74.2566,40.5168],[-74.2562,40.5183],[-74.2564,40.5187],[-74.256,40.5196],[-74.255,40.52],[-74.2545,40.5211],[-74.2523,40.5208],[-74.2511,40.5215],[-74.2505,40.5229],[-74.2501,40.5232],[-74.2503,40.524],[-74.2508,40.5244],[-74.2515,40.5255],[-74.2515,40.526],[-74.2522,40.5268],[-74.252,40.5275],[-74.2521,40.5281],[-74.2532,40.5299],[-74.2532,40.5306],[-74.2535,40.5313],[-74.2537,40.5329],[-74.2533,40.5329],[-74.2536,40.534],[-74.254,40.5343],[-74.2544,40.5359],[-74.2544,40.5373],[-74.254,40.5377],[-74.2542,40.5387],[-74.2545,40.5391],[-74.2551,40.5395],[-74.2565,40.5399],[-74.257,40.5399],[-74.2578,40.5396],[-74.2579,40.5392],[-74.2574,40.5379],[-74.2574,40.5374],[-74.2577,40.5371],[-74.2586,40.5371],[-74.2594,40.5374],[-74.2601,40.538],[-74.2613,40.5385],[-74.2626,40.5394],[-74.2634,40.5407],[-74.2647,40.5417],[-74.2649,40.5426],[-74.2646,40.5433],[-74.265,40.5444],[-74.2656,40.5446],[-74.2671,40.5444],[-74.2675,40.5443],[-74.2684,40.5445],[-74.2691,40.5454],[-74.2691,40.546],[-74.2683,40.5468],[-74.2681,40.5472],[-74.2686,40.5478],[-74.2697,40.5485],[-74.2703,40.5491],[-74.2709,40.55],[-74.271,40.5513],[-74.2706,40.5517],[-74.2698,40.5515],[-74.2691,40.5503],[-74.2687,40.5499],[-74.2679,40.5501],[-74.2676,40.5519],[-74.2665,40.5537],[-74.2663,40.5535],[-74.2672,40.5519],[-74.2673,40.5504],[-74.2676,40.5499],[-74.2682,40.5496],[-74.2691,40.5499],[-74.2699,40.5511],[-74.2704,40.5514],[-74.2709,40.5509],[-74.2708,40.5503],[-74.2703,40.5495],[-74.2692,40.5485],[-74.268,40.5478],[-74.2675,40.5474],[-74.2677,40.5468],[-74.2686,40.546],[-74.2688,40.5454],[-74.2684,40.5448],[-74.2675,40.5445],[-74.2664,40.5449],[-74.2653,40.5448],[-74.2646,40.5442],[-74.2643,40.5436],[-74.2646,40.5425],[-74.2645,40.542],[-74.2639,40.5414],[-74.2633,40.5411],[-74.2627,40.5404],[-74.262,40.5392],[-74.2604,40.5386],[-74.2584,40.5374],[-74.2578,40.5378],[-74.2583,40.5389],[-74.258,40.54],[-74.2574,40.5404],[-74.2563,40.5405],[-74.2558,40.5402],[-74.2546,40.5402],[-74.2539,40.542],[-74.2537,40.543],[-74.2538,40.5439],[-74.254,40.5449],[-74.2538,40.5453],[-74.2545,40.5464],[-74.2548,40.5473],[-74.2546,40.5481],[-74.2549,40.5489],[-74.2551,40.55],[-74.2557,40.5523],[-74.2561,40.5537],[-74.256,40.555],[-74.2558,40.5557],[-74.2552,40.5561],[-74.2543,40.5562],[-74.2532,40.556],[-74.2527,40.5561],[-74.2515,40.5567],[-74.2496,40.5581],[-74.2486,40.5585],[-74.2485,40.5583],[-74.2499,40.5575],[-74.251,40.5565],[-74.252,40.5559],[-74.253,40.5556],[-74.2545,40.556],[-74.2555,40.5556],[-74.2558,40.5543],[-74.2557,40.5531],[-74.2551,40.5514],[-74.2547,40.5499],[-74.2541,40.5503],[-74.2532,40.5517],[-74.2524,40.5525],[-74.2519,40.5536],[-74.2509,40.5539],[-74.2502,40.5544],[-74.2484,40.5549],[-74.2479,40.555],[-74.2461,40.5554],[-74.245,40.556],[-74.2444,40.5562],[-74.2438,40.5567],[-74.2426,40.5573],[-74.2421,40.5572],[-74.2406,40.5578],[-74.2375,40.559],[-74.2369,40.5594],[-74.236,40.5602],[-74.235,40.5602],[-74.2339,40.5617],[-74.233,40.5618],[-74.2321,40.5629],[-74.2318,40.5629],[-74.2306,40.5624],[-74.2296,40.5621],[-74.2289,40.5621],[-74.2276,40.5617],[-74.2264,40.5615],[-74.2261,40.5612],[-74.2251,40.561],[-74.2247,40.5611],[-74.2236,40.5607],[-74.2233,40.5603],[-74.2222,40.5596],[-74.2204,40.5589],[-74.2165,40.5629],[-74.2168,40.5635],[-74.2166,40.5642],[-74.2155,40.5646],[-74.2152,40.5658],[-74.2145,40.566],[-74.2141,40.5677],[-74.214,40.5686],[-74.2147,40.569],[-74.2147,40.5696],[-74.2144,40.5707],[-74.2146,40.5713],[-74.2132,40.5709],[-74.2123,40.575],[-74.2125,40.5758],[-74.2124,40.5769],[-74.2126,40.5772],[-74.2117,40.5778],[-74.2116,40.5794],[-74.2107,40.5816],[-74.2113,40.5817],[-74.2107,40.5824],[-74.2109,40.5829],[-74.2103,40.5835],[-74.2098,40.5857],[-74.2097,40.5877],[-74.209,40.589],[-74.2084,40.5892],[-74.2087,40.5897],[-74.2079,40.5909],[-74.2074,40.5913],[-74.2069,40.5928],[-74.2064,40.5932],[-74.2066,40.5937],[-74.2076,40.5943],[-74.2079,40.5947],[-74.2109,40.5967],[-74.2118,40.5978],[-74.2126,40.599],[-74.2129,40.6016],[-74.2132,40.6024],[-74.214,40.6032],[-74.2147,40.6035],[-74.2154,40.6035],[-74.2163,40.603],[-74.2164,40.6016],[-74.2169,40.6006],[-74.2173,40.6003],[-74.2183,40.5999],[-74.2197,40.5995],[-74.2233,40.5992],[-74.2265,40.5992],[-74.2284,40.599],[-74.2293,40.5985],[-74.2324,40.5988],[-74.2339,40.5992],[-74.2344,40.5997],[-74.2342,40.5999],[-74.2348,40.6017],[-74.2355,40.6021],[-74.2369,40.6022],[-74.2374,40.602],[-74.2386,40.6006],[-74.2393,40.6],[-74.2403,40.5996],[-74.2412,40.5995],[-74.2418,40.5991],[-74.243,40.599],[-74.2445,40.5991],[-74.2469,40.5983],[-74.2477,40.5991],[-74.2491,40.5995],[-74.2496,40.5998],[-74.2505,40.6002],[-74.252,40.6004],[-74.2529,40.6003],[-74.254,40.6009],[-74.2547,40.6015],[-74.2552,40.6018],[-74.2573,40.6018],[-74.2594,40.6029],[-74.2614,40.6032],[-74.2623,40.6032],[-74.2631,40.6028],[-74.264,40.6009],[-74.2653,40.5997],[-74.267,40.599],[-74.2686,40.5988],[-74.2693,40.5992],[-74.2706,40.5995],[-74.2724,40.5998],[-74.2731,40.6005],[-74.2737,40.6006],[-74.2744,40.6002],[-74.2749,40.5995],[-74.2763,40.5983],[-74.2767,40.5973],[-74.2773,40.5968],[-74.2791,40.5957],[-74.2794,40.5958],[-74.2776,40.5969],[-74.2769,40.5975],[-74.2764,40.5987],[-74.2749,40.5999],[-74.2746,40.6003],[-74.2737,40.6008],[-74.2728,40.6008],[-74.273,40.6013],[-74.2728,40.6026],[-74.2722,40.6045],[-74.2719,40.6052],[-74.272,40.6063],[-74.2728,40.6075],[-74.2735,40.6086],[-74.274,40.6088],[-74.2752,40.61],[-74.2755,40.6111],[-74.2776,40.6112],[-74.279,40.6104],[-74.2796,40.6105],[-74.28,40.6109],[-74.281,40.611],[-74.2816,40.6112],[-74.2821,40.6117],[-74.2835,40.6117],[-74.2838,40.6112],[-74.2857,40.6104],[-74.2867,40.6106],[-74.2872,40.6104],[-74.2878,40.6086],[-74.2895,40.6075],[-74.291,40.6082],[-74.2922,40.6082],[-74.2925,40.6081],[-74.2942,40.607],[-74.2948,40.6061],[-74.2954,40.6058],[-74.2959,40.6053],[-74.2964,40.6051],[-74.2976,40.6051],[-74.2981,40.6053],[-74.2988,40.606],[-74.2997,40.606],[-74.3,40.6063],[-74.3,40.5981],[-74.3,40.5438],[-74.3,40.512]]],[[[-74.3,40.607],[-74.2992,40.607],[-74.2989,40.6063],[-74.2977,40.6054],[-74.2972,40.6053],[-74.2964,40.6053],[-74.2955,40.606],[-74.2949,40.6062],[-74.2947,40.6068],[-74.2939,40.6075],[-74.2923,40.6083],[-74.291,40.6083],[-74.2895,40.6077],[-74.2884,40.6085],[-74.2886,40.6092],[-74.2876,40.6096],[-74.2874,40.6104],[-74.2869,40.6107],[-74.2859,40.6105],[-74.2853,40.6107],[-74.2841,40.6112],[-74.2841,40.6116],[-74.2835,40.6119],[-74.2818,40.6118],[-74.2813,40.6113],[-74.2798,40.611],[-74.2791,40.6106],[-74.2773,40.6114],[-74.275,40.6112],[-74.2739,40.6126],[-74.2739,40.6129],[-74.2752,40.6142],[-74.2761,40.6146],[-74.2768,40.6155],[-74.2769,40.6161],[-74.2782,40.6176],[-74.2791,40.618],[-74.2803,40.6188],[-74.2814,40.6188],[-74.2825,40.6191],[-74.2844,40.6187],[-74.2888,40.6183],[-74.29,40.6187],[-74.2905,40.6193],[-74.2915,40.6212],[-74.2913,40.6219],[-74.291,40.6225],[-74.2899,40.6233],[-74.2895,40.6235],[-74.2878,40.6246],[-74.2863,40.6258],[-74.2856,40.6266],[-74.2852,40.6273],[-74.2851,40.6282],[-74.2857,40.6284],[-74.2857,40.6295],[-74.2859,40.6304],[-74.2855,40.6316],[-74.2843,40.6316],[-74.2844,40.6321],[-74.2848,40.6326],[-74.2859,40.6334],[-74.287,40.6335],[-74.2877,40.6332],[-74.2905,40.6305],[-74.2922,40.6305],[-74.2934,40.63],[-74.2939,40.6295],[-74.2945,40.6287],[-74.2951,40.6282],[-74.297,40.6283],[-74.2978,40.6283],[-74.2981,40.6288],[-74.2989,40.6286],[-74.2984,40.6294],[-74.2986,40.6302],[-74.2973,40.6312],[-74.2961,40.6313],[-74.297,40.6302],[-74.2976,40.629],[-74.2977,40.6284],[-74.2969,40.6286],[-74.2955,40.6283],[-74.2947,40.6286],[-74.294,40.6296],[-74.2933,40.6301],[-74.2922,40.6306],[-74.2906,40.6306],[-74.2892,40.6318],[-74.2881,40.6331],[-74.287,40.6337],[-74.2861,40.6336],[-74.2847,40.6328],[-74.2841,40.6317],[-74.2843,40.6311],[-74.2849,40.6304],[-74.2851,40.6299],[-74.2846,40.6288],[-74.2849,40.6282],[-74.2853,40.6269],[-74.2865,40.6255],[-74.2884,40.6239],[-74.2903,40.6229],[-74.2908,40.6223],[-74.2911,40.6212],[-74.2905,40.6198],[-74.2899,40.619],[-74.289,40.6186],[-74.2879,40.6186],[-74.2869,40.6187],[-74.2859,40.6187],[-74.2837,40.619],[-74.2827,40.6193],[-74.2818,40.6193],[-74.2803,40.619],[-74.279,40.6181],[-74.2778,40.6175],[-74.277,40.617],[-74.2757,40.6159],[-74.2747,40.6148],[-74.2747,40.6138],[-74.2737,40.6131],[-74.2735,40.6127],[-74.2746,40.6114],[-74.275,40.6102],[-74.2738,40.6091],[-74.2734,40.609],[-74.2715,40.6064],[-74.2713,40.6058],[-74.2713,40.6047],[-74.2718,40.6041],[-74.2724,40.6007],[-74.2722,40.6002],[-74.2711,40.5997],[-74.269,40.5997],[-74.268,40.5995],[-74.2664,40.6],[-74.2653,40.6007],[-74.2649,40.6013],[-74.2645,40.6024],[-74.2638,40.6035],[-74.2626,40.6038],[-74.2604,40.6038],[-74.2592,40.6036],[-74.258,40.6029],[-74.257,40.6024],[-74.2554,40.6026],[-74.2538,40.6018],[-74.2535,40.6013],[-74.253,40.6011],[-74.2507,40.6011],[-74.2496,40.6009],[-74.2487,40.6009],[-74.247,40.6003],[-74.2452,40.5999],[-74.2426,40.5998],[-74.2417,40.6],[-74.2402,40.6005],[-74.2387,40.6015],[-74.2383,40.6022],[-74.2378,40.6026],[-74.2369,40.6029],[-74.2365,40.6027],[-74.2347,40.6026],[-74.2339,40.6016],[-74.2334,40.6003],[-74.2329,40.5998],[-74.2321,40.5995],[-74.2307,40.5993],[-74.2296,40.5993],[-74.2277,40.6003],[-74.2266,40.6006],[-74.2228,40.6005],[-74.221,40.6008],[-74.2211,40.6013],[-74.221,40.6029],[-74.2207,40.6029],[-74.2209,40.6015],[-74.2206,40.6009],[-74.2185,40.6017],[-74.218,40.6021],[-74.2172,40.6034],[-74.2164,40.6042],[-74.2151,40.6045],[-74.2138,40.6043],[-74.2122,40.6033],[-74.2116,40.6021],[-74.2116,40.5997],[-74.2114,40.599],[-74.2101,40.5976],[-74.2095,40.5971],[-74.2076,40.5962],[-74.2065,40.596],[-74.2067,40.5955],[-74.2047,40.5945],[-74.2042,40.5946],[-74.2021,40.5968],[-74.2018,40.5977],[-74.2015,40.5997],[-74.2012,40.6],[-74.2013,40.6007],[-74.2023,40.602],[-74.2038,40.6031],[-74.2047,40.6034],[-74.2047,40.6036],[-74.2057,40.6041],[-74.2057,40.6044],[-74.2066,40.606],[-74.2066,40.6064],[-74.2059,40.6072],[-74.2058,40.608],[-74.206,40.609],[-74.2058,40.6093],[-74.2058,40.6105],[-74.2054,40.6109],[-74.2053,40.6128],[-74.2053,40.6137],[-74.205,40.6156],[-74.2049,40.6171],[-74.205,40.6185],[-74.2053,40.6192],[-74.2058,40.6196],[-74.2083,40.6197],[-74.2092,40.6204],[-74.2113,40.6201],[-74.2125,40.6195],[-74.2127,40.6184],[-74.2131,40.6178],[-74.2137,40.6174],[-74.2143,40.6158],[-74.215,40.6151],[-74.2157,40.6147],[-74.2174,40.6147],[-74.2178,40.6144],[-74.2176,40.6138],[-74.2179,40.613],[-74.219,40.6125],[-74.219,40.6134],[-74.2181,40.6139],[-74.2181,40.6143],[-74.2188,40.6147],[-74.2193,40.6154],[-74.2205,40.6158],[-74.2203,40.6161],[-74.2193,40.6158],[-74.2187,40.615],[-74.2179,40.6148],[-74.2171,40.615],[-74.2161,40.615],[-74.2154,40.6152],[-74.2149,40.6157],[-74.2143,40.6173],[-74.2136,40.6178],[-74.2131,40.6186],[-74.2128,40.6197],[-74.2116,40.6204],[-74.2096,40.6207],[-74.2087,40.6206],[-74.2028,40.6336],[-74.2032,40.6338],[-74.2049,40.634],[-74.2058,40.6336],[-74.207,40.6326],[-74.2079,40.6313],[-74.2082,40.63],[-74.2097,40.6279],[-74.2106,40.6276],[-74.2112,40.6277],[-74.2125,40.6281],[-74.2143,40.6284],[-74.2147,40.6282],[-74.2156,40.6268],[-74.2164,40.6263],[-74.2173,40.6267],[-74.2184,40.6276],[-74.2189,40.6286],[-74.2199,40.6288],[-74.2219,40.6272],[-74.2231,40.627],[-74.2237,40.6272],[-74.224,40.628],[-74.2247,40.6285],[-74.2269,40.6281],[-74.2275,40.6268],[-74.229,40.6256],[-74.23,40.6256],[-74.2305,40.6252],[-74.2314,40.6249],[-74.2311,40.6242],[-74.2312,40.6238],[-74.2339,40.623],[-74.2347,40.6234],[-74.2352,40.6246],[-74.2347,40.6245],[-74.2346,40.6238],[-74.2334,40.624],[-74.2314,40.6251],[-74.231,40.6254],[-74.2299,40.6259],[-74.2299,40.6264],[-74.2292,40.6268],[-74.2287,40.6274],[-74.2292,40.6278],[-74.229,40.6287],[-74.2284,40.6294],[-74.2292,40.6297],[-74.2302,40.6295],[-74.2305,40.6298],[-74.2314,40.6295],[-74.2325,40.6303],[-74.233,40.631],[-74.2335,40.6333],[-74.2331,40.6339],[-74.2333,40.6344],[-74.2349,40.6352],[-74.2339,40.6354],[-74.2329,40.6352],[-74.2323,40.6346],[-74.2324,40.6338],[-74.2316,40.6331],[-74.2321,40.6322],[-74.2316,40.6317],[-74.2317,40.6313],[-74.2288,40.6308],[-74.2287,40.6301],[-74.2281,40.6298],[-74.2277,40.63],[-74.2271,40.6296],[-74.2266,40.6298],[-74.2252,40.629],[-74.2242,40.6287],[-74.2232,40.6272],[-74.2217,40.6277],[-74.2202,40.6289],[-74.2198,40.6291],[-74.2187,40.629],[-74.2178,40.6275],[-74.217,40.6268],[-74.2162,40.6266],[-74.2152,40.6281],[-74.2147,40.6285],[-74.2137,40.6287],[-74.2129,40.6287],[-74.2112,40.628],[-74.2101,40.6282],[-74.2086,40.6299],[-74.2083,40.6314],[-74.2078,40.6324],[-74.2066,40.6336],[-74.2057,40.6342],[-74.2037,40.6343],[-74.2002,40.6342],[-74.1985,40.6358],[-74.2002,40.637],[-74.2001,40.6372],[-74.1981,40.6362],[-74.197,40.6382],[-74.1946,40.6403],[-74.1925,40.642],[-74.1927,40.6422],[-74.1906,40.6436],[-74.1905,40.6442],[-74.192,40.644],[-74.1944,40.6432],[-74.1952,40.6427],[-74.1959,40.6419],[-74.1969,40.6416],[-74.1987,40.6422],[-74.2006,40.6423],[-74.2013,40.6432],[-74.2014,40.6444],[-74.2023,40.6449],[-74.2035,40.6452],[-74.2046,40.6461],[-74.2048,40.647],[-74.2053,40.6474],[-74.2057,40.6474],[-74.2065,40.6469],[-74.2072,40.6466],[-74.2084,40.6466],[-74.209,40.6469],[-74.2102,40.6491],[-74.2098,40.6501],[-74.2102,40.6509],[-74.2102,40.6515],[-74.2092,40.6523],[-74.2088,40.6531],[-74.2087,40.6539],[-74.209,40.6545],[-74.2101,40.6559],[-74.2104,40.6563],[-74.2106,40.6579],[-74.2104,40.658],[-74.2102,40.6566],[-74.2099,40.6559],[-74.2084,40.6543],[-74.2083,40.6534],[-74.2088,40.6524],[-74.21,40.6511],[-74.2096,40.6501],[-74.2097,40.6489],[-74.2088,40.6473],[-74.208,40.6468],[-74.207,40.647],[-74.2061,40.6477],[-74.2053,40.6477],[-74.2048,40.6475],[-74.2041,40.6461],[-74.2028,40.6452],[-74.2014,40.6449],[-74.2009,40.6441],[-74.201,40.6432],[-74.2003,40.6426],[-74.1985,40.6424],[-74.1972,40.6418],[-74.1963,40.6421],[-74.1957,40.6429],[-74.195,40.6432],[-74.1933,40.6438],[-74.1924,40.6442],[-74.1912,40.6444],[-74.1892,40.6442],[-74.1889,40.6446],[-74.188,40.645],[-74.1873,40.6458],[-74.1863,40.6466],[-74.1859,40.6464],[-74.1849,40.6471],[-74.1802,40.6478],[-74.1798,40.6479],[-74.1799,40.6485],[-74.1795,40.6492],[-74.1787,40.6497],[-74.1776,40.6492],[-74.176,40.6497],[-74.1698,40.6526],[-74.162,40.6587],[-74.1611,40.6596],[-74.1602,40.6601],[-74.1577,40.6621],[-74.1576,40.6626],[-74.1568,40.6628],[-74.1493,40.66],[-74.141,40.6709],[-74.1402,40.6722],[-74.1388,40.6739],[-74.1442,40.6771],[-74.1542,40.6833],[-74.1605,40.6871],[-74.1601,40.6876],[-74.1591,40.6891],[-74.1587,40.6891],[-74.1535,40.686],[-74.1523,40.6853],[-74.1456,40.6809],[-74.1442,40.6801],[-74.1361,40.689],[-74.1409,40.694],[-74.1541,40.6986],[-74.153,40.7002],[-74.1438,40.697],[-74.1408,40.696],[-74.139,40.6952],[-74.1334,40.6896],[-74.1303,40.6902],[-74.1265,40.6959],[-74.1269,40.6964],[-74.1264,40.6969],[-74.1256,40.6971],[-74.1207,40.7045],[-74.1232,40.7122],[-74.123,40.7126],[-74.1231,40.7134],[-74.1232,40.7165],[-74.1231,40.7176],[-74.1229,40.7193],[-74.1233,40.7197],[-74.1224,40.7213],[-74.1223,40.7223],[-74.122,40.7234],[-74.1215,40.724],[-74.1216,40.7247],[-74.1211,40.726],[-74.1205,40.7279],[-74.1198,40.7299],[-74.1194,40.7299],[-74.1192,40.7307],[-74.1194,40.7311],[-74.1187,40.7323],[-74.1186,40.7333],[-74.1184,40.734],[-74.1181,40.7368],[-74.1181,40.7383],[-74.119,40.7395],[-74.12,40.7401],[-74.1225,40.7411],[-74.1227,40.741],[-74.1265,40.7414],[-74.1299,40.7411],[-74.1306,40.7413],[-74.1338,40.741],[-74.1392,40.7403],[-74.1407,40.7395],[-74.1416,40.7388],[-74.1448,40.7347],[-74.1462,40.734],[-74.1467,40.7336],[-74.1478,40.7333],[-74.1489,40.7331],[-74.1509,40.7331],[-74.1512,40.7332],[-74.1527,40.7333],[-74.1546,40.7332],[-74.157,40.7333],[-74.1587,40.7336],[-74.1601,40.7342],[-74.1612,40.7349],[-74.1619,40.7355],[-74.1631,40.7368],[-74.1637,40.7378],[-74.1643,40.7394],[-74.1646,40.7406],[-74.1655,40.7424],[-74.1664,40.7455],[-74.1665,40.7466],[-74.1664,40.7481],[-74.1661,40.7496],[-74.166,40.7506],[-74.1657,40.7509],[-74.1654,40.7528],[-74.1648,40.7576],[-74.1638,40.7599],[-74.1629,40.7611],[-74.1617,40.7628],[-74.1599,40.7644],[-74.1587,40.766],[-74.1575,40.7678],[-74.1573,40.7685],[-74.157,40.7702],[-74.1562,40.7719],[-74.1549,40.7734],[-74.1534,40.7748],[-74.1507,40.7769],[-74.149,40.7788],[-74.1487,40.7793],[-74.1489,40.7828],[-74.1488,40.7845],[-74.1484,40.7859],[-74.1478,40.7869],[-74.1469,40.7882],[-74.1457,40.7902],[-74.1451,40.791],[-74.1429,40.793],[-74.1397,40.7973],[-74.1392,40.7977],[-74.1386,40.7991],[-74.1388,40.8003],[-74.1399,40.8026],[-74.1401,40.8035],[-74.1403,40.8052],[-74.14,40.8061],[-74.1392,40.8076],[-74.1392,40.8094],[-74.139,40.8105],[-74.1391,40.8121],[-74.139,40.8132],[-74.1381,40.8161],[-74.1371,40.818],[-74.1366,40.8185],[-74.1343,40.8195],[-74.1329,40.8197],[-74.1306,40.8203],[-74.1396,40.8253],[-74.1512,40.8317],[-74.1585,40.8356],[-74.1631,40.838],[-74.1794,40.847],[-74.1827,40.8488],[-74.1923,40.8541],[-74.1979,40.8571],[-74.198,40.8572],[-74.197,40.8595],[-74.2017,40.8604],[-74.2022,40.8594],[-74.2094,40.8632],[-74.2097,40.8624],[-74.2095,40.8622],[-74.2104,40.8617],[-74.2112,40.8607],[-74.2118,40.8593],[-74.2125,40.8588],[-74.213,40.8581],[-74.2138,40.858],[-74.2138,40.8576],[-74.2144,40.8568],[-74.2147,40.8555],[-74.2149,40.855],[-74.2157,40.8543],[-74.2167,40.8531],[-74.2179,40.8537],[-74.2181,40.8541],[-74.217,40.8567],[-74.2167,40.8573],[-74.2154,40.859],[-74.2152,40.8596],[-74.2124,40.8648],[-74.2234,40.871],[-74.2381,40.8792],[-74.2403,40.8804],[-74.2468,40.881],[-74.2531,40.8816],[-74.2545,40.8828],[-74.2552,40.8826],[-74.2565,40.8825],[-74.2581,40.8827],[-74.2599,40.8835],[-74.2633,40.8856],[-74.2648,40.8868],[-74.2651,40.8873],[-74.2654,40.889],[-74.2656,40.8907],[-74.2658,40.892],[-74.267,40.8945],[-74.2679,40.8952],[-74.2704,40.8965],[-74.2714,40.8969],[-74.2723,40.897],[-74.274,40.8968],[-74.275,40.8968],[-74.276,40.8965],[-74.2775,40.8965],[-74.2781,40.8968],[-74.2792,40.8977],[-74.2798,40.8978],[-74.2807,40.8975],[-74.2814,40.8969],[-74.2817,40.8962],[-74.2827,40.8952],[-74.2835,40.895],[-74.2839,40.8947],[-74.2845,40.8946],[-74.285,40.8955],[-74.2841,40.8976],[-74.285,40.8977],[-74.2859,40.8973],[-74.2873,40.8979],[-74.2875,40.8985],[-74.2871,40.8991],[-74.2856,40.8996],[-74.2831,40.8999],[-74.2822,40.8998],[-74.282,40.9005],[-74.2823,40.9009],[-74.2834,40.9012],[-74.2857,40.9011],[-74.2864,40.9008],[-74.2886,40.8995],[-74.2893,40.8993],[-74.2904,40.8994],[-74.2915,40.8998],[-74.2921,40.9002],[-74.2928,40.9013],[-74.2927,40.9016],[-74.2919,40.902],[-74.2924,40.9029],[-74.2924,40.9042],[-74.2921,40.9052],[-74.293,40.9057],[-74.2941,40.9058],[-74.2966,40.9056],[-74.2972,40.9055],[-74.2995,40.9047],[-74.3,40.9045],[-74.3,40.8626],[-74.3,40.714],[-74.3,40.7091],[-74.2998,40.7093],[-74.2996,40.7105],[-74.2998,40.7132],[-74.2996,40.7133],[-74.2993,40.7112],[-74.2993,40.7092],[-74.3,40.7088],[-74.3,40.607]],[[-74.289,40.7602],[-74.2887,40.7614],[-74.2883,40.7621],[-74.2874,40.763],[-74.2864,40.7638],[-74.2866,40.7645],[-74.2862,40.7657],[-74.2851,40.7673],[-74.2835,40.7685],[-74.2832,40.7686],[-74.283,40.7675],[-74.2837,40.7665],[-74.2842,40.7652],[-74.2842,40.7636],[-74.2844,40.7625],[-74.2849,40.7612],[-74.285,40.7603],[-74.286,40.759],[-74.2889,40.7598],[-74.289,40.7602]]],[[[-74.1481,40.9422],[-74.1463,40.9419],[-74.1443,40.9415],[-74.1433,40.9407],[-74.1432,40.9404],[-74.1419,40.9382],[-74.1406,40.9372],[-74.1398,40.9358],[-74.1392,40.9342],[-74.1393,40.9332],[-74.1395,40.9325],[-74.1403,40.9312],[-74.1419,40.93],[-74.1421,40.9292],[-74.1416,40.9267],[-74.1408,40.9254],[-74.1398,40.9242],[-74.1383,40.9233],[-74.1375,40.9232],[-74.1356,40.9235],[-74.1334,40.9233],[-74.1324,40.9229],[-74.1303,40.922],[-74.1293,40.9212],[-74.1289,40.9204],[-74.1293,40.919],[-74.1301,40.9175],[-74.1305,40.9165],[-74.1313,40.9153],[-74.1322,40.9143],[-74.1328,40.9132],[-74.1327,40.9112],[-74.1318,40.9095],[-74.1315,40.9086],[-74.1315,40.908],[-74.1309,40.9068],[-74.1311,40.9062],[-74.1308,40.9059],[-74.1317,40.9041],[-74.1322,40.9036],[-74.1327,40.9025],[-74.1329,40.9011],[-74.1328,40.8997],[-74.1326,40.8982],[-74.1319,40.8971],[-74.1312,40.8966],[-74.129,40.8956],[-74.1278,40.8942],[-74.1281,40.8938],[-74.1277,40.8928],[-74.128,40.8925],[-74.1283,40.8904],[-74.1288,40.8891],[-74.1292,40.8872],[-74.129,40.8863],[-74.1284,40.8852],[-74.1274,40.8844],[-74.1259,40.8836],[-74.1249,40.8833],[-74.1243,40.8827],[-74.1218,40.8815],[-74.121,40.8815],[-74.1199,40.8805],[-74.1195,40.8798],[-74.1194,40.8785],[-74.1192,40.878],[-74.1179,40.8771],[-74.117,40.8771],[-74.1163,40.8767],[-74.1149,40.8754],[-74.1146,40.8747],[-74.1146,40.8739],[-74.1141,40.8726],[-74.1135,40.8709],[-74.1134,40.8704],[-74.1121,40.8689],[-74.1116,40.8678],[-74.1109,40.8657],[-74.1104,40.8652],[-74.1083,40.8644],[-74.1074,40.8638],[-74.1069,40.8633],[-74.1068,40.8626],[-74.1063,40.8615],[-74.1066,40.8606],[-74.1066,40.86],[-74.1063,40.8587],[-74.1066,40.8571],[-74.1073,40.8561],[-74.1085,40.8552],[-74.1099,40.8548],[-74.1107,40.855],[-74.112,40.8554],[-74.1127,40.8561],[-74.1129,40.8575],[-74.1129,40.8583],[-74.1133,40.8588],[-74.1146,40.8596],[-74.1163,40.8596],[-74.1176,40.8594],[-74.1184,40.859],[-74.1186,40.8586],[-74.119,40.8572],[-74.1195,40.8561],[-74.1196,40.8554],[-74.1187,40.852],[-74.1187,40.8516],[-74.1193,40.8495],[-74.1208,40.8469],[-74.1213,40.8448],[-74.1215,40.8433],[-74.1222,40.8416],[-74.1232,40.8405],[-74.1237,40.839],[-74.1236,40.8381],[-74.1228,40.8371],[-74.1223,40.8361],[-74.1221,40.8352],[-74.1207,40.833],[-74.1205,40.8312],[-74.1208,40.8293],[-74.1214,40.8274],[-74.1216,40.8272],[-74.1222,40.825],[-74.1223,40.8245],[-74.1227,40.8235],[-74.1239,40.8226],[-74.1234,40.8223],[-74.1239,40.8219],[-74.1265,40.8202],[-74.127,40.82],[-74.128,40.82],[-74.1333,40.8187],[-74.1359,40.8175],[-74.1366,40.817],[-74.137,40.8158],[-74.1374,40.8139],[-74.1379,40.8131],[-74.138,40.8123],[-74.1379,40.8117],[-74.1382,40.8082],[-74.1381,40.8081],[-74.1382,40.8063],[-74.1388,40.8058],[-74.139,40.8051],[-74.139,40.8041],[-74.1385,40.8021],[-74.137,40.8],[-74.1374,40.7995],[-74.138,40.7977],[-74.1393,40.7967],[-74.1394,40.7964],[-74.141,40.7941],[-74.1412,40.7939],[-74.142,40.7926],[-74.143,40.7914],[-74.1436,40.791],[-74.1439,40.7904],[-74.1448,40.7895],[-74.146,40.7878],[-74.1467,40.7871],[-74.1471,40.7863],[-74.1479,40.7843],[-74.1477,40.7834],[-74.1478,40.7824],[-74.1478,40.7795],[-74.1482,40.7782],[-74.1501,40.776],[-74.1503,40.7755],[-74.151,40.7751],[-74.1529,40.7734],[-74.1541,40.7712],[-74.1549,40.7695],[-74.1554,40.769],[-74.1563,40.7669],[-74.1569,40.7661],[-74.1585,40.7645],[-74.1606,40.7621],[-74.1612,40.7615],[-74.1625,40.7597],[-74.1634,40.7576],[-74.1638,40.7553],[-74.164,40.7547],[-74.1641,40.7536],[-74.1644,40.7522],[-74.1646,40.7509],[-74.165,40.7495],[-74.1652,40.7474],[-74.1652,40.7457],[-74.1644,40.7432],[-74.1632,40.7407],[-74.1623,40.7387],[-74.1612,40.7366],[-74.1601,40.7354],[-74.1595,40.7352],[-74.1582,40.7345],[-74.1576,40.7343],[-74.1555,40.7343],[-74.1544,40.7345],[-74.154,40.7348],[-74.1516,40.735],[-74.1508,40.7346],[-74.1481,40.7348],[-74.1465,40.7356],[-74.1457,40.7363],[-74.1449,40.7373],[-74.1448,40.7376],[-74.1439,40.7387],[-74.1438,40.7391],[-74.1424,40.74],[-74.1419,40.7404],[-74.1401,40.7413],[-74.1388,40.7416],[-74.1378,40.7421],[-74.1327,40.7428],[-74.1304,40.7429],[-74.1277,40.7432],[-74.1252,40.7433],[-74.1233,40.7431],[-74.1202,40.7423],[-74.1191,40.7419],[-74.1191,40.7417],[-74.1172,40.7408],[-74.117,40.7401],[-74.1166,40.74],[-74.1162,40.7383],[-74.1158,40.7379],[-74.1161,40.7369],[-74.1159,40.7368],[-74.1162,40.7358],[-74.1163,40.7346],[-74.1169,40.7322],[-74.1168,40.7318],[-74.1176,40.7285],[-74.1175,40.7283],[-74.1192,40.7238],[-74.1197,40.7227],[-74.1196,40.7223],[-74.1185,40.7221],[-74.1185,40.7203],[-74.1177,40.7195],[-74.1175,40.7188],[-74.1162,40.7173],[-74.1144,40.7174],[-74.1136,40.718],[-74.1122,40.7184],[-74.112,40.7187],[-74.1096,40.7195],[-74.1084,40.7192],[-74.1074,40.7193],[-74.107,40.7191],[-74.106,40.7199],[-74.1089,40.7207],[-74.1089,40.7214],[-74.1051,40.7204],[-74.1035,40.7215],[-74.1022,40.723],[-74.1017,40.7241],[-74.1017,40.7251],[-74.1012,40.7262],[-74.1011,40.7271],[-74.1015,40.7276],[-74.1011,40.7279],[-74.1009,40.7284],[-74.1011,40.7292],[-74.1001,40.7313],[-74.0992,40.7328],[-74.0985,40.7335],[-74.0984,40.7343],[-74.0973,40.7354],[-74.0971,40.7354],[-74.0958,40.7367],[-74.0946,40.7376],[-74.0925,40.7388],[-74.0927,40.7392],[-74.0898,40.7402],[-74.0889,40.7402],[-74.0877,40.7406],[-74.0861,40.7408],[-74.0852,40.7407],[-74.0836,40.7414],[-74.0827,40.7415],[-74.0818,40.7421],[-74.0808,40.7423],[-74.0802,40.7429],[-74.0796,40.7432],[-74.0784,40.7433],[-74.0774,40.7439],[-74.0765,40.7449],[-74.076,40.7461],[-74.0762,40.7463],[-74.0761,40.7474],[-74.0765,40.7479],[-74.0775,40.7479],[-74.0807,40.7477],[-74.0826,40.7473],[-74.0839,40.7471],[-74.0897,40.7475],[-74.0914,40.7475],[-74.0934,40.7483],[-74.095,40.7494],[-74.0961,40.7506],[-74.0966,40.7519],[-74.0968,40.7529],[-74.0966,40.7548],[-74.0963,40.7558],[-74.0955,40.7575],[-74.0945,40.759],[-74.0917,40.7625],[-74.0922,40.7631],[-74.0929,40.7633],[-74.0929,40.7637],[-74.0903,40.763],[-74.0899,40.7637],[-74.0896,40.7645],[-74.0895,40.7655],[-74.0899,40.7673],[-74.0901,40.7677],[-74.0907,40.7702],[-74.0912,40.7708],[-74.0908,40.771],[-74.0911,40.7731],[-74.0917,40.7747],[-74.0927,40.7762],[-74.0928,40.777],[-74.093,40.7777],[-74.094,40.7785],[-74.0942,40.7791],[-74.0941,40.7803],[-74.095,40.7809],[-74.0948,40.7815],[-74.0936,40.78],[-74.0938,40.7786],[-74.0929,40.7779],[-74.0925,40.7774],[-74.092,40.7755],[-74.0914,40.7753],[-74.0913,40.7769],[-74.0911,40.7784],[-74.0904,40.7792],[-74.0904,40.7798],[-74.0899,40.7813],[-74.0894,40.7818],[-74.0893,40.7823],[-74.0885,40.7831],[-74.0875,40.7838],[-74.087,40.7844],[-74.0849,40.7862],[-74.0859,40.7863],[-74.0864,40.7867],[-74.0882,40.7872],[-74.0898,40.7873],[-74.0912,40.7876],[-74.0917,40.7881],[-74.0919,40.7889],[-74.0904,40.7922],[-74.0911,40.7928],[-74.0921,40.793],[-74.0934,40.7936],[-74.0949,40.7948],[-74.096,40.7955],[-74.0969,40.7963],[-74.0969,40.7968],[-74.0963,40.7973],[-74.0948,40.7982],[-74.0944,40.7986],[-74.0931,40.8014],[-74.0934,40.802],[-74.095,40.8028],[-74.0953,40.8032],[-74.0947,40.8047],[-74.0944,40.8061],[-74.0945,40.808],[-74.0941,40.8093],[-74.0939,40.8093],[-74.0926,40.8103],[-74.0916,40.8105],[-74.0919,40.8112],[-74.0921,40.8123],[-74.093,40.814],[-74.0929,40.8152],[-74.0923,40.816],[-74.0916,40.816],[-74.0901,40.8157],[-74.0882,40.8159],[-74.0873,40.8163],[-74.087,40.8168],[-74.0869,40.8188],[-74.0866,40.8201],[-74.086,40.8211],[-74.0844,40.823],[-74.0838,40.8233],[-74.0831,40.824],[-74.0827,40.8251],[-74.0823,40.8256],[-74.082,40.8265],[-74.0816,40.8269],[-74.0799,40.8265],[-74.0796,40.8269],[-74.0799,40.8285],[-74.0794,40.8286],[-74.0779,40.8282],[-74.077,40.8285],[-74.0772,40.829],[-74.0769,40.8296],[-74.0767,40.8305],[-74.077,40.8315],[-74.0767,40.8318],[-74.0754,40.832],[-74.0763,40.8333],[-74.0762,40.8336],[-74.0755,40.8341],[-74.0751,40.8346],[-74.0763,40.8352],[-74.0762,40.8358],[-74.077,40.8361],[-74.0766,40.8372],[-74.0761,40.8379],[-74.076,40.8368],[-74.0756,40.8362],[-74.076,40.8354],[-74.0752,40.8352],[-74.0749,40.8346],[-74.0759,40.8333],[-74.0754,40.8326],[-74.0746,40.8325],[-74.0743,40.832],[-74.0752,40.8318],[-74.0767,40.8316],[-74.0769,40.8313],[-74.0764,40.8308],[-74.0765,40.8297],[-74.0769,40.829],[-74.0763,40.8286],[-74.0763,40.828],[-74.0752,40.8269],[-74.075,40.8261],[-74.0741,40.8258],[-74.0735,40.8251],[-74.0728,40.8251],[-74.0715,40.8245],[-74.0703,40.8241],[-74.07,40.8237],[-74.0693,40.8236],[-74.0687,40.8237],[-74.0682,40.8233],[-74.067,40.8233],[-74.067,40.8228],[-74.0678,40.8227],[-74.0721,40.8242],[-74.0728,40.8251],[-74.0737,40.8251],[-74.0741,40.8257],[-74.0751,40.8259],[-74.0754,40.8264],[-74.0755,40.8272],[-74.0764,40.8281],[-74.0779,40.8279],[-74.0789,40.8281],[-74.0797,40.8278],[-74.0791,40.8266],[-74.0793,40.8263],[-74.0799,40.8261],[-74.0812,40.8265],[-74.0818,40.8257],[-74.0824,40.8242],[-74.0823,40.8239],[-74.0839,40.8225],[-74.0852,40.8211],[-74.0858,40.8201],[-74.0862,40.8189],[-74.0863,40.818],[-74.0862,40.8176],[-74.0864,40.8166],[-74.0871,40.8159],[-74.0882,40.8155],[-74.0897,40.8153],[-74.0911,40.8153],[-74.0923,40.8154],[-74.0924,40.8149],[-74.0921,40.8138],[-74.0915,40.8126],[-74.0912,40.8113],[-74.0908,40.8104],[-74.0902,40.8096],[-74.0891,40.809],[-74.0886,40.8089],[-74.0875,40.8081],[-74.0845,40.8063],[-74.0828,40.8049],[-74.081,40.8039],[-74.0785,40.802],[-74.0761,40.8007],[-74.0752,40.7997],[-74.075,40.799],[-74.0742,40.7985],[-74.0734,40.7987],[-74.073,40.7984],[-74.0704,40.7986],[-74.0696,40.7988],[-74.0691,40.7997],[-74.0691,40.8002],[-74.0675,40.8029],[-74.0669,40.8036],[-74.0666,40.8036],[-74.0652,40.8052],[-74.0643,40.8057],[-74.0633,40.806],[-74.0617,40.8069],[-74.0609,40.8068],[-74.0596,40.807],[-74.0592,40.8073],[-74.0574,40.8073],[-74.0567,40.8075],[-74.0553,40.8075],[-74.0546,40.8077],[-74.0537,40.8076],[-74.053,40.8078],[-74.0522,40.8078],[-74.0511,40.808],[-74.0501,40.8079],[-74.0491,40.8082],[-74.0468,40.8086],[-74.045,40.8087],[-74.0442,40.8089],[-74.0404,40.8089],[-74.0394,40.8087],[-74.0375,40.8087],[-74.0358,40.809],[-74.0347,40.8098],[-74.0338,40.8112],[-74.0334,40.8123],[-74.0328,40.8146],[-74.0325,40.8147],[-74.0319,40.8159],[-74.0318,40.8165],[-74.0321,40.817],[-74.0318,40.8174],[-74.0318,40.8184],[-74.0325,40.8184],[-74.0335,40.8187],[-74.0341,40.8193],[-74.034,40.8199],[-74.0344,40.8206],[-74.035,40.821],[-74.0352,40.822],[-74.0358,40.8224],[-74.0357,40.8242],[-74.0359,40.8251],[-74.0368,40.8258],[-74.0371,40.8276],[-74.0369,40.8284],[-74.038,40.8289],[-74.0382,40.8294],[-74.0373,40.8295],[-74.0368,40.8299],[-74.0359,40.8298],[-74.0343,40.8308],[-74.0338,40.8309],[-74.0309,40.8323],[-74.0305,40.8331],[-74.0305,40.8342],[-74.0311,40.8353],[-74.0313,40.836],[-74.0319,40.8375],[-74.0319,40.8395],[-74.0311,40.842],[-74.0307,40.8422],[-74.0306,40.8437],[-74.0309,40.8444],[-74.0312,40.8446],[-74.0318,40.8464],[-74.0314,40.847],[-74.0315,40.8479],[-74.0313,40.848],[-74.0304,40.8491],[-74.0305,40.8493],[-74.0299,40.8508],[-74.0298,40.8512],[-74.0293,40.8521],[-74.0292,40.8539],[-74.0295,40.8547],[-74.0307,40.8563],[-74.0317,40.8571],[-74.0328,40.8583],[-74.0336,40.8604],[-74.0331,40.8627],[-74.0336,40.8636],[-74.0356,40.8654],[-74.0359,40.8658],[-74.0362,40.8675],[-74.0365,40.868],[-74.0363,40.8687],[-74.0364,40.871],[-74.0368,40.8723],[-74.0361,40.8737],[-74.036,40.8743],[-74.0354,40.875],[-74.0352,40.8761],[-74.0358,40.8766],[-74.0381,40.877],[-74.0392,40.8771],[-74.0402,40.8779],[-74.0403,40.8796],[-74.0394,40.8803],[-74.0375,40.8818],[-74.0368,40.8825],[-74.0363,40.8827],[-74.0359,40.8836],[-74.0355,40.884],[-74.0347,40.8854],[-74.0341,40.8862],[-74.0344,40.8869],[-74.0353,40.887],[-74.0364,40.8874],[-74.0376,40.8882],[-74.038,40.8887],[-74.0381,40.8898],[-74.0372,40.8914],[-74.0367,40.892],[-74.0363,40.8928],[-74.0351,40.8935],[-74.034,40.8942],[-74.0337,40.8946],[-74.033,40.8948],[-74.0317,40.8961],[-74.0315,40.8969],[-74.0321,40.8989],[-74.0328,40.8995],[-74.0327,40.9006],[-74.0321,40.9014],[-74.0319,40.9023],[-74.0307,40.9029],[-74.0299,40.9035],[-74.0292,40.9033],[-74.0283,40.9036],[-74.0279,40.9039],[-74.0282,40.9053],[-74.0277,40.9061],[-74.0265,40.9069],[-74.0249,40.9075],[-74.0256,40.908],[-74.0263,40.909],[-74.0255,40.91],[-74.0267,40.9103],[-74.0274,40.9111],[-74.0273,40.912],[-74.028,40.9126],[-74.0286,40.9126],[-74.0292,40.913],[-74.0302,40.9133],[-74.0303,40.9135],[-74.031,40.9148],[-74.0312,40.9154],[-74.0327,40.9166],[-74.0334,40.9179],[-74.0335,40.9187],[-74.0329,40.9229],[-74.0319,40.9238],[-74.0323,40.9246],[-74.0331,40.9248],[-74.0333,40.9257],[-74.0329,40.9269],[-74.0306,40.9288],[-74.0314,40.9296],[-74.031,40.9309],[-74.0296,40.9314],[-74.0295,40.9331],[-74.0289,40.935],[-74.0281,40.9366],[-74.0268,40.9379],[-74.0259,40.9392],[-74.0256,40.9391],[-74.0267,40.9375],[-74.0278,40.9365],[-74.0284,40.9349],[-74.0289,40.9326],[-74.0288,40.932],[-74.0291,40.9314],[-74.0308,40.9308],[-74.031,40.9304],[-74.0308,40.9299],[-74.03,40.9295],[-74.0297,40.9287],[-74.03,40.9279],[-74.03,40.9269],[-74.0307,40.9269],[-74.0312,40.9272],[-74.0319,40.9269],[-74.0322,40.9263],[-74.0327,40.926],[-74.0328,40.9251],[-74.0318,40.9246],[-74.0314,40.9239],[-74.033,40.9224],[-74.0327,40.9223],[-74.0326,40.9212],[-74.033,40.9202],[-74.0331,40.9183],[-74.0325,40.9173],[-74.0306,40.9157],[-74.03,40.9147],[-74.0299,40.914],[-74.0297,40.9136],[-74.0281,40.9133],[-74.0269,40.9138],[-74.0265,40.9135],[-74.0267,40.9129],[-74.0267,40.9123],[-74.0269,40.9115],[-74.0267,40.9112],[-74.0258,40.9107],[-74.0255,40.9108],[-74.0247,40.9101],[-74.0247,40.9096],[-74.0252,40.9093],[-74.0251,40.9085],[-74.0246,40.9085],[-74.0242,40.9077],[-74.0244,40.9071],[-74.0249,40.9069],[-74.0258,40.9068],[-74.0265,40.9061],[-74.0268,40.9055],[-74.0263,40.9045],[-74.0258,40.9038],[-74.0261,40.9036],[-74.0272,40.9037],[-74.0277,40.9029],[-74.0282,40.9026],[-74.0295,40.9022],[-74.0308,40.9015],[-74.0313,40.901],[-74.0317,40.9002],[-74.0317,40.8996],[-74.0303,40.8972],[-74.0306,40.8961],[-74.0311,40.8955],[-74.0323,40.8945],[-74.0338,40.8936],[-74.0345,40.893],[-74.0345,40.8925],[-74.0356,40.8921],[-74.0364,40.8905],[-74.0367,40.8893],[-74.0361,40.8886],[-74.0357,40.8884],[-74.0336,40.8884],[-74.0329,40.8881],[-74.0323,40.8868],[-74.0328,40.8864],[-74.0329,40.8857],[-74.0335,40.8849],[-74.0338,40.8841],[-74.0342,40.8839],[-74.0351,40.8828],[-74.0353,40.8823],[-74.0363,40.8814],[-74.0386,40.8797],[-74.039,40.8793],[-74.0392,40.8786],[-74.0387,40.8778],[-74.0358,40.8775],[-74.0349,40.8773],[-74.0342,40.8762],[-74.0342,40.8757],[-74.0344,40.8741],[-74.0349,40.8731],[-74.0351,40.8717],[-74.0344,40.8718],[-74.0343,40.8709],[-74.0351,40.871],[-74.0352,40.8698],[-74.035,40.8689],[-74.0351,40.868],[-74.0345,40.8662],[-74.0324,40.8638],[-74.032,40.8629],[-74.032,40.8608],[-74.0321,40.8603],[-74.0319,40.8597],[-74.0319,40.8592],[-74.0315,40.8585],[-74.0307,40.8578],[-74.0295,40.857],[-74.0286,40.8555],[-74.028,40.8552],[-74.0276,40.8542],[-74.0276,40.853],[-74.028,40.8526],[-74.0281,40.8518],[-74.0288,40.8502],[-74.0292,40.849],[-74.0299,40.8477],[-74.0289,40.8473],[-74.0283,40.8473],[-74.0273,40.847],[-74.0267,40.8467],[-74.026,40.8459],[-74.0259,40.8455],[-74.0251,40.8449],[-74.0247,40.8426],[-74.0237,40.8419],[-74.0226,40.8417],[-74.022,40.8413],[-74.0218,40.8405],[-74.0209,40.8401],[-74.0192,40.8401],[-74.0178,40.8397],[-74.0176,40.8399],[-74.0165,40.8396],[-74.0132,40.8404],[-74.012,40.8439],[-74.0114,40.8444],[-74.0119,40.845],[-74.0118,40.8469],[-74.012,40.8473],[-74.0116,40.8476],[-74.012,40.8479],[-74.012,40.849],[-74.0115,40.8497],[-74.0115,40.8504],[-74.0107,40.852],[-74.0101,40.8527],[-74.0096,40.8537],[-74.0086,40.8547],[-74.008,40.855],[-74.0078,40.8568],[-74.0083,40.8577],[-74.0083,40.858],[-74.0072,40.8593],[-74.0066,40.8608],[-74.0048,40.8622],[-74.0047,40.8628],[-74.0044,40.8634],[-74.0042,40.8642],[-74.0047,40.8651],[-74.0042,40.8655],[-74.0039,40.8661],[-73.9992,40.8668],[-73.9992,40.8672],[-73.9983,40.8681],[-73.9981,40.8691],[-73.9981,40.8699],[-73.9978,40.871],[-73.9971,40.8719],[-73.9957,40.8728],[-73.9943,40.8732],[-73.9939,40.8736],[-73.9943,40.8743],[-73.9944,40.8771],[-73.9938,40.878],[-73.9929,40.8789],[-73.9926,40.879],[-73.9915,40.8804],[-73.9899,40.8822],[-73.989,40.8834],[-73.9887,40.8833],[-73.9915,40.8801],[-73.9937,40.8774],[-73.9936,40.8769],[-73.9924,40.877],[-73.9922,40.8766],[-73.9929,40.8764],[-73.9939,40.8766],[-73.9941,40.8754],[-73.9938,40.8745],[-73.9934,40.8739],[-73.9926,40.8739],[-73.9915,40.8744],[-73.9903,40.8746],[-73.9906,40.8742],[-73.992,40.8739],[-73.9926,40.8736],[-73.9929,40.8728],[-73.9923,40.8724],[-73.9933,40.8717],[-73.9943,40.8706],[-73.9947,40.8699],[-73.9945,40.8689],[-73.9953,40.8686],[-73.9969,40.8674],[-73.9976,40.8674],[-73.998,40.8669],[-73.9986,40.8668],[-73.999,40.8664],[-73.999,40.866],[-74.0001,40.8646],[-74.0006,40.8645],[-74.0003,40.8638],[-74.0009,40.8633],[-74.0017,40.8622],[-74.0032,40.8605],[-74.0038,40.8591],[-74.0048,40.8583],[-74.005,40.8572],[-74.0057,40.8563],[-74.0063,40.8548],[-74.0069,40.8543],[-74.0087,40.8521],[-74.0087,40.8517],[-74.0083,40.8509],[-74.0092,40.8494],[-74.0098,40.8489],[-74.01,40.8482],[-74.0098,40.8473],[-74.01,40.8466],[-74.0104,40.8463],[-74.0106,40.8457],[-74.0103,40.8444],[-74.0101,40.8399],[-74.0123,40.8381],[-74.0135,40.8374],[-74.0149,40.8372],[-74.0161,40.8376],[-74.0171,40.8385],[-74.0177,40.8381],[-74.0181,40.8382],[-74.0183,40.8389],[-74.0194,40.8392],[-74.0198,40.8386],[-74.0206,40.8385],[-74.0209,40.839],[-74.0214,40.8391],[-74.0228,40.84],[-74.0245,40.8413],[-74.0259,40.8422],[-74.0267,40.8435],[-74.0268,40.8444],[-74.0273,40.8457],[-74.0282,40.846],[-74.0291,40.8454],[-74.029,40.8444],[-74.0284,40.8435],[-74.0288,40.8417],[-74.0294,40.8403],[-74.0298,40.8401],[-74.03,40.8393],[-74.0297,40.8379],[-74.0289,40.8364],[-74.0283,40.8358],[-74.0281,40.8352],[-74.0282,40.8343],[-74.0276,40.8336],[-74.0283,40.8334],[-74.0303,40.831],[-74.0305,40.8306],[-74.0312,40.8302],[-74.0315,40.8296],[-74.0321,40.8294],[-74.033,40.8288],[-74.0341,40.8278],[-74.0339,40.8272],[-74.034,40.8266],[-74.0339,40.8254],[-74.0333,40.8245],[-74.0325,40.8241],[-74.0326,40.8232],[-74.0322,40.8224],[-74.0321,40.8217],[-74.0307,40.8207],[-74.0295,40.819],[-74.0289,40.8185],[-74.0291,40.8177],[-74.0289,40.8161],[-74.0293,40.8155],[-74.0289,40.8146],[-74.0296,40.8144],[-74.0302,40.8132],[-74.0284,40.8128],[-74.0279,40.8137],[-74.0279,40.8149],[-74.0276,40.8161],[-74.027,40.8166],[-74.0262,40.8164],[-74.0256,40.816],[-74.0249,40.815],[-74.0243,40.8152],[-74.0253,40.8158],[-74.0254,40.8164],[-74.0249,40.8166],[-74.0236,40.8166],[-74.0232,40.8171],[-74.0235,40.8182],[-74.0229,40.8187],[-74.0212,40.8187],[-74.0204,40.8188],[-74.0202,40.8197],[-74.021,40.8208],[-74.0214,40.8217],[-74.021,40.8221],[-74.0202,40.8216],[-74.0203,40.8211],[-74.0195,40.8211],[-74.0192,40.8215],[-74.0192,40.8222],[-74.0189,40.8227],[-74.0181,40.8235],[-74.0167,40.8238],[-74.017,40.8249],[-74.0178,40.8256],[-74.0186,40.8257],[-74.0198,40.8266],[-74.0206,40.8267],[-74.0205,40.8271],[-74.0187,40.8262],[-74.0176,40.8259],[-74.0166,40.8249],[-74.0163,40.8242],[-74.0165,40.8236],[-74.018,40.8231],[-74.0189,40.8222],[-74.019,40.821],[-74.0199,40.8204],[-74.0197,40.8199],[-74.0203,40.8186],[-74.0217,40.8183],[-74.0226,40.8184],[-74.023,40.8182],[-74.0227,40.8172],[-74.0233,40.8164],[-74.0248,40.8162],[-74.0238,40.8155],[-74.0236,40.8149],[-74.0243,40.8144],[-74.0252,40.8146],[-74.0259,40.8156],[-74.0267,40.8161],[-74.0273,40.8157],[-74.0278,40.8126],[-74.0283,40.8125],[-74.0303,40.8126],[-74.0316,40.8112],[-74.0326,40.8096],[-74.034,40.8083],[-74.034,40.808],[-74.0349,40.8076],[-74.0364,40.8065],[-74.037,40.8068],[-74.0376,40.8066],[-74.039,40.8065],[-74.0377,40.8059],[-74.0346,40.8042],[-74.0339,40.8037],[-74.0324,40.8038],[-74.0333,40.803],[-74.0332,40.8022],[-74.0332,40.8014],[-74.033,40.8001],[-74.0332,40.7997],[-74.0343,40.7993],[-74.0333,40.7988],[-74.0332,40.7984],[-74.0335,40.7979],[-74.0348,40.7974],[-74.0352,40.7963],[-74.0357,40.7953],[-74.0363,40.7944],[-74.0384,40.7936],[-74.0384,40.7932],[-74.037,40.793],[-74.0364,40.7923],[-74.0365,40.7914],[-74.0375,40.7911],[-74.0386,40.7911],[-74.0375,40.7903],[-74.037,40.7902],[-74.038,40.7893],[-74.0383,40.7897],[-74.0382,40.7902],[-74.0389,40.7908],[-74.039,40.7914],[-74.0383,40.7915],[-74.0372,40.7914],[-74.0368,40.7917],[-74.0369,40.7924],[-74.0377,40.7928],[-74.0386,40.7929],[-74.0388,40.7936],[-74.0368,40.7945],[-74.036,40.7951],[-74.0354,40.7965],[-74.0351,40.7976],[-74.0336,40.7981],[-74.0337,40.7986],[-74.035,40.7989],[-74.0354,40.7994],[-74.0352,40.7997],[-74.0337,40.7998],[-74.0337,40.8004],[-74.0346,40.8003],[-74.0352,40.8006],[-74.0335,40.8008],[-74.0335,40.8019],[-74.0338,40.8024],[-74.0342,40.8025],[-74.0337,40.8031],[-74.0349,40.8035],[-74.0389,40.8058],[-74.0406,40.8063],[-74.0415,40.8062],[-74.0431,40.8064],[-74.0431,40.8057],[-74.0427,40.8054],[-74.0419,40.804],[-74.042,40.8029],[-74.0425,40.8026],[-74.0432,40.8036],[-74.0427,40.8047],[-74.0432,40.8053],[-74.0433,40.8064],[-74.0448,40.8066],[-74.0488,40.8061],[-74.049,40.806],[-74.0518,40.8057],[-74.0529,40.8055],[-74.0536,40.8052],[-74.0541,40.8055],[-74.0556,40.8055],[-74.0566,40.8051],[-74.0572,40.8051],[-74.0586,40.8047],[-74.059,40.8047],[-74.06,40.8041],[-74.0609,40.8038],[-74.0614,40.8034],[-74.0626,40.8027],[-74.0627,40.8024],[-74.0646,40.8012],[-74.0656,40.8003],[-74.0662,40.7994],[-74.0668,40.7992],[-74.0673,40.7982],[-74.069,40.7972],[-74.0692,40.7969],[-74.0707,40.7962],[-74.0724,40.796],[-74.0726,40.7957],[-74.0737,40.7956],[-74.0739,40.7952],[-74.0745,40.7955],[-74.0752,40.7953],[-74.0738,40.7946],[-74.0717,40.7939],[-74.0709,40.7935],[-74.0716,40.7925],[-74.0721,40.7921],[-74.0731,40.7926],[-74.0739,40.7923],[-74.0744,40.7916],[-74.0755,40.7908],[-74.0765,40.7894],[-74.0765,40.7889],[-74.0776,40.7887],[-74.078,40.7882],[-74.0791,40.7881],[-74.0799,40.7876],[-74.0802,40.786],[-74.0812,40.786],[-74.0814,40.7855],[-74.0826,40.7845],[-74.0834,40.7838],[-74.0861,40.7808],[-74.0861,40.7804],[-74.0876,40.7795],[-74.0886,40.7784],[-74.0885,40.778],[-74.0892,40.7772],[-74.089,40.7765],[-74.0877,40.7744],[-74.0872,40.7733],[-74.0868,40.7721],[-74.0863,40.7695],[-74.0861,40.7676],[-74.0858,40.7673],[-74.0864,40.7655],[-74.0862,40.7649],[-74.0869,40.7636],[-74.0872,40.7635],[-74.0878,40.7628],[-74.0894,40.7607],[-74.0902,40.7601],[-74.0913,40.7586],[-74.0918,40.7585],[-74.0921,40.7577],[-74.0932,40.7556],[-74.0938,40.7536],[-74.0939,40.7524],[-74.0935,40.7512],[-74.0926,40.7504],[-74.0911,40.7503],[-74.0894,40.7505],[-74.0879,40.751],[-74.0837,40.7518],[-74.0834,40.752],[-74.081,40.7522],[-74.0787,40.7522],[-74.078,40.752],[-74.0769,40.752],[-74.0765,40.751],[-74.0754,40.7501],[-74.0746,40.7496],[-74.0745,40.7492],[-74.074,40.7487],[-74.0737,40.7468],[-74.0741,40.7464],[-74.0748,40.7443],[-74.0754,40.7434],[-74.0758,40.7432],[-74.076,40.7426],[-74.0767,40.7424],[-74.0786,40.7411],[-74.079,40.741],[-74.08,40.7402],[-74.081,40.7399],[-74.0818,40.7395],[-74.0846,40.739],[-74.0866,40.7384],[-74.0872,40.7383],[-74.0887,40.7376],[-74.0917,40.7358],[-74.0919,40.7352],[-74.0925,40.735],[-74.0937,40.7343],[-74.0943,40.7332],[-74.0944,40.7325],[-74.0949,40.7321],[-74.0947,40.7314],[-74.0953,40.7312],[-74.0954,40.7305],[-74.0959,40.7302],[-74.0963,40.7272],[-74.0966,40.7271],[-74.0969,40.7263],[-74.0965,40.726],[-74.0967,40.7251],[-74.0964,40.7246],[-74.0967,40.7242],[-74.0969,40.7229],[-74.0974,40.7218],[-74.0976,40.7209],[-74.0976,40.72],[-74.0984,40.7186],[-74.099,40.7181],[-74.0998,40.7181],[-74.1014,40.7182],[-74.1017,40.7178],[-74.1065,40.7143],[-74.1036,40.7124],[-74.1039,40.7121],[-74.1048,40.7121],[-74.1056,40.7124],[-74.1067,40.7124],[-74.1073,40.7122],[-74.1066,40.7094],[-74.1064,40.7048],[-74.1055,40.7041],[-74.1044,40.7043],[-74.1037,40.7032],[-74.1025,40.7027],[-74.1018,40.7027],[-74.1025,40.7019],[-74.1125,40.6891],[-74.1122,40.6886],[-74.113,40.6875],[-74.1121,40.6868],[-74.1116,40.6865],[-74.1121,40.686],[-74.1127,40.686],[-74.1138,40.6865],[-74.1176,40.6819],[-74.1178,40.6819],[-74.1192,40.6802],[-74.1183,40.6797],[-74.1171,40.6791],[-74.1167,40.6788],[-74.117,40.6781],[-74.1183,40.6769],[-74.1191,40.6765],[-74.1194,40.6761],[-74.1213,40.6752],[-74.1219,40.674],[-74.1228,40.6734],[-74.1232,40.6729],[-74.1233,40.6723],[-74.1242,40.6718],[-74.1251,40.6719],[-74.1257,40.6722],[-74.1276,40.6697],[-74.1276,40.6688],[-74.1281,40.6683],[-74.1278,40.6678],[-74.1282,40.6669],[-74.1278,40.6661],[-74.1281,40.6656],[-74.1289,40.6652],[-74.1293,40.6653],[-74.1306,40.6659],[-74.1332,40.6625],[-74.1326,40.6622],[-74.1323,40.6618],[-74.1324,40.661],[-74.1331,40.6606],[-74.1334,40.66],[-74.1336,40.6591],[-74.1348,40.658],[-74.1352,40.6579],[-74.1359,40.6572],[-74.137,40.6575],[-74.1381,40.6564],[-74.1387,40.6556],[-74.139,40.6557],[-74.1406,40.6542],[-74.1405,40.6537],[-74.1408,40.653],[-74.1413,40.6526],[-74.1416,40.652],[-74.1423,40.6516],[-74.1426,40.6508],[-74.1432,40.6505],[-74.1442,40.6506],[-74.1453,40.6484],[-74.1449,40.6482],[-74.1463,40.6466],[-74.1439,40.6436],[-74.141,40.6443],[-74.1402,40.6448],[-74.1392,40.6449],[-74.1369,40.6455],[-74.1363,40.6451],[-74.127,40.645],[-74.1242,40.6454],[-74.1229,40.6458],[-74.1217,40.6458],[-74.1201,40.6461],[-74.1192,40.6474],[-74.1188,40.6478],[-74.1182,40.6487],[-74.1176,40.6487],[-74.1166,40.6491],[-74.1151,40.6495],[-74.1152,40.6499],[-74.1167,40.6519],[-74.1166,40.6526],[-74.1157,40.6529],[-74.1143,40.6517],[-74.114,40.6518],[-74.1129,40.651],[-74.1113,40.6509],[-74.1087,40.6508],[-74.1083,40.6504],[-74.1075,40.6504],[-74.1074,40.6512],[-74.1059,40.6511],[-74.1056,40.6507],[-74.1057,40.6501],[-74.104,40.6499],[-74.1038,40.6506],[-74.1029,40.6504],[-74.1029,40.6499],[-74.1015,40.6498],[-74.1,40.6495],[-74.0967,40.6493],[-74.0942,40.6498],[-74.0914,40.6514],[-74.0875,40.6537],[-74.0883,40.6563],[-74.0886,40.6563],[-74.0889,40.6577],[-74.0897,40.6583],[-74.0897,40.6588],[-74.0908,40.6607],[-74.091,40.662],[-74.0914,40.6628],[-74.0903,40.665],[-74.091,40.6651],[-74.091,40.6647],[-74.0924,40.6646],[-74.0938,40.6647],[-74.0947,40.6642],[-74.0958,40.6643],[-74.0959,40.6651],[-74.0971,40.6651],[-74.0983,40.6658],[-74.0995,40.6673],[-74.1008,40.6679],[-74.1018,40.6686],[-74.1025,40.6686],[-74.1043,40.6688],[-74.1048,40.6691],[-74.106,40.669],[-74.1074,40.6694],[-74.1071,40.6699],[-74.1064,40.6703],[-74.1051,40.6699],[-74.1041,40.6699],[-74.1029,40.6695],[-74.1013,40.6696],[-74.1008,40.6692],[-74.1004,40.6693],[-74.0986,40.6692],[-74.0945,40.6685],[-74.0902,40.6679],[-74.0882,40.6675],[-74.087,40.6672],[-74.0858,40.6667],[-74.0853,40.6663],[-74.0841,40.666],[-74.0811,40.6649],[-74.0787,40.6642],[-74.0783,40.6639],[-74.0773,40.6636],[-74.0743,40.6623],[-74.0704,40.6609],[-74.0698,40.6617],[-74.07,40.662],[-74.0693,40.6623],[-74.0683,40.6639],[-74.0709,40.6651],[-74.0728,40.6658],[-74.0814,40.6697],[-74.0824,40.67],[-74.0828,40.6699],[-74.0871,40.6714],[-74.0879,40.6718],[-74.0904,40.6725],[-74.0914,40.6725],[-74.0919,40.673],[-74.0924,40.673],[-74.0939,40.674],[-74.0948,40.674],[-74.0963,40.6746],[-74.0955,40.6757],[-74.0949,40.6759],[-74.0925,40.6751],[-74.0917,40.675],[-74.0916,40.6756],[-74.0904,40.6759],[-74.0893,40.6755],[-74.0887,40.6756],[-74.0881,40.6759],[-74.0862,40.6752],[-74.0853,40.6736],[-74.0825,40.6723],[-74.0798,40.6711],[-74.079,40.6714],[-74.0772,40.6705],[-74.0747,40.6696],[-74.0726,40.6687],[-74.0719,40.6683],[-74.0704,40.6675],[-74.0698,40.6674],[-74.068,40.6666],[-74.0666,40.6661],[-74.0662,40.6664],[-74.0652,40.668],[-74.0649,40.6691],[-74.0705,40.6715],[-74.0744,40.6731],[-74.0758,40.6738],[-74.078,40.6746],[-74.0807,40.6762],[-74.0812,40.6763],[-74.0811,40.6775],[-74.0789,40.6763],[-74.077,40.6756],[-74.0746,40.6786],[-74.0732,40.6801],[-74.0771,40.6825],[-74.077,40.6831],[-74.0735,40.6808],[-74.0735,40.6811],[-74.0725,40.6816],[-74.0721,40.6815],[-74.0716,40.682],[-74.0745,40.684],[-74.0746,40.6838],[-74.0766,40.6852],[-74.0765,40.6854],[-74.0803,40.688],[-74.0795,40.689],[-74.078,40.6886],[-74.0759,40.6886],[-74.0745,40.6877],[-74.0733,40.6886],[-74.0722,40.6888],[-74.0702,40.687],[-74.0701,40.6885],[-74.0702,40.6887],[-74.0701,40.6907],[-74.066,40.6949],[-74.067,40.6955],[-74.0677,40.6956],[-74.068,40.6953],[-74.069,40.695],[-74.0697,40.6944],[-74.0696,40.694],[-74.0704,40.6939],[-74.0706,40.6944],[-74.0699,40.6954],[-74.0683,40.6969],[-74.0671,40.6964],[-74.0666,40.6968],[-74.066,40.6981],[-74.0654,40.6977],[-74.0654,40.6973],[-74.0647,40.6971],[-74.0611,40.695],[-74.0614,40.694],[-74.0607,40.6937],[-74.0604,40.6944],[-74.0576,40.6929],[-74.0578,40.6921],[-74.0553,40.6908],[-74.0543,40.6921],[-74.0559,40.6932],[-74.0558,40.694],[-74.0563,40.6944],[-74.0563,40.695],[-74.0553,40.6953],[-74.0549,40.6947],[-74.0531,40.6964],[-74.0526,40.6967],[-74.0512,40.696],[-74.0505,40.6971],[-74.0493,40.6985],[-74.0463,40.7013],[-74.0442,40.7029],[-74.0414,40.7047],[-74.0427,40.7052],[-74.0433,40.7059],[-74.0431,40.7063],[-74.0426,40.7065],[-74.0394,40.7062],[-74.0355,40.7057],[-74.0345,40.709],[-74.0381,40.7094],[-74.0386,40.7096],[-74.0387,40.7102],[-74.0395,40.7104],[-74.0397,40.7096],[-74.0485,40.7107],[-74.049,40.7108],[-74.0511,40.7111],[-74.0512,40.7118],[-74.051,40.7121],[-74.0489,40.7119],[-74.0483,40.712],[-74.047,40.7118],[-74.0423,40.7113],[-74.0426,40.7121],[-74.0433,40.7122],[-74.043,40.7135],[-74.042,40.7134],[-74.0415,40.7124],[-74.041,40.7123],[-74.0411,40.7111],[-74.0395,40.7109],[-74.038,40.7112],[-74.0373,40.7116],[-74.0354,40.7113],[-74.0351,40.7117],[-74.0379,40.7121],[-74.038,40.7124],[-74.0358,40.7121],[-74.0353,40.7121],[-74.0347,40.7118],[-74.0337,40.7117],[-74.0332,40.7127],[-74.033,40.7139],[-74.0332,40.7143],[-74.0327,40.7162],[-74.0322,40.7164],[-74.0321,40.7169],[-74.0307,40.7168],[-74.0305,40.7171],[-74.0328,40.7174],[-74.0325,40.7193],[-74.0294,40.719],[-74.0293,40.7193],[-74.032,40.7196],[-74.0325,40.7201],[-74.0315,40.7202],[-74.0316,40.7212],[-74.0314,40.7219],[-74.0342,40.7221],[-74.0339,40.7228],[-74.0341,40.7231],[-74.0338,40.7241],[-74.0296,40.7238],[-74.0295,40.7246],[-74.0339,40.725],[-74.0346,40.7253],[-74.0344,40.7262],[-74.0324,40.7261],[-74.0312,40.7262],[-74.0303,40.7261],[-74.03,40.7265],[-74.0305,40.7269],[-74.0304,40.7277],[-74.0274,40.7275],[-74.0275,40.7277],[-74.031,40.7281],[-74.031,40.7286],[-74.0266,40.7281],[-74.0265,40.7287],[-74.031,40.7291],[-74.0312,40.7294],[-74.0306,40.7298],[-74.0297,40.7297],[-74.0313,40.7306],[-74.0283,40.7304],[-74.028,40.731],[-74.0308,40.7313],[-74.0305,40.7337],[-74.0293,40.7336],[-74.0291,40.7341],[-74.0272,40.7341],[-74.0261,40.7359],[-74.0277,40.7362],[-74.0276,40.7366],[-74.0263,40.7364],[-74.0252,40.7363],[-74.0248,40.7371],[-74.0272,40.7375],[-74.0272,40.7377],[-74.0267,40.7395],[-74.0263,40.7398],[-74.0257,40.7397],[-74.0255,40.7404],[-74.0264,40.7407],[-74.0263,40.7411],[-74.0252,40.7414],[-74.025,40.7423],[-74.0245,40.7432],[-74.0241,40.7431],[-74.0238,40.7437],[-74.0233,40.7438],[-74.0227,40.7448],[-74.0225,40.7459],[-74.0228,40.7471],[-74.0235,40.7485],[-74.0225,40.7484],[-74.0223,40.7488],[-74.0234,40.7492],[-74.0232,40.7501],[-74.0218,40.7501],[-74.0217,40.7502],[-74.0237,40.7506],[-74.0236,40.7508],[-74.021,40.7503],[-74.021,40.7504],[-74.0236,40.7509],[-74.0234,40.7512],[-74.0209,40.7508],[-74.0209,40.7509],[-74.0233,40.7514],[-74.0231,40.7518],[-74.0232,40.7529],[-74.0231,40.7535],[-74.0205,40.7531],[-74.0204,40.7533],[-74.0236,40.7538],[-74.0233,40.7546],[-74.0209,40.754],[-74.0206,40.7543],[-74.0233,40.7548],[-74.0232,40.7555],[-74.0236,40.7557],[-74.0243,40.7549],[-74.0263,40.7552],[-74.0271,40.7555],[-74.0269,40.7563],[-74.0274,40.7564],[-74.0272,40.7573],[-74.0263,40.7573],[-74.0261,40.758],[-74.025,40.7582],[-74.0237,40.7576],[-74.0233,40.7576],[-74.0224,40.759],[-74.0197,40.7579],[-74.0193,40.7581],[-74.0222,40.7594],[-74.0211,40.7609],[-74.0191,40.76],[-74.0186,40.7602],[-74.0209,40.7612],[-74.0205,40.7617],[-74.0183,40.7606],[-74.0178,40.7608],[-74.0203,40.7619],[-74.0195,40.7632],[-74.0189,40.7634],[-74.018,40.7634],[-74.0172,40.7641],[-74.0168,40.7646],[-74.0172,40.7655],[-74.0168,40.7662],[-74.017,40.7666],[-74.0152,40.7691],[-74.0151,40.7697],[-74.014,40.771],[-74.0134,40.771],[-74.0127,40.7715],[-74.0108,40.7725],[-74.0104,40.773],[-74.0105,40.7733],[-74.0098,40.774],[-74.011,40.7746],[-74.0107,40.7756],[-74.0117,40.776],[-74.0113,40.7766],[-74.0103,40.7767],[-74.0108,40.7771],[-74.0104,40.7776],[-74.0093,40.7772],[-74.0086,40.778],[-74.0068,40.7802],[-74.0056,40.7797],[-74.0055,40.78],[-74.0066,40.7806],[-74.0062,40.781],[-74.0054,40.7807],[-74.0039,40.7826],[-74.0033,40.7823],[-74.0024,40.7834],[-74.0003,40.7861],[-73.9982,40.7888],[-73.9973,40.7901],[-73.9982,40.7905],[-73.9978,40.7917],[-73.9962,40.7912],[-73.9967,40.7918],[-73.9968,40.7926],[-73.9964,40.7928],[-73.9954,40.7926],[-73.9945,40.7933],[-73.9942,40.7945],[-73.9936,40.795],[-73.9951,40.7958],[-73.9948,40.7962],[-73.993,40.7957],[-73.9927,40.7959],[-73.9919,40.7972],[-73.9922,40.7976],[-73.9929,40.7977],[-73.9936,40.7981],[-73.9943,40.7982],[-73.9942,40.7989],[-73.9924,40.8],[-73.9918,40.802],[-73.9904,40.8035],[-73.9897,40.8034],[-73.9891,40.804],[-73.9876,40.8034],[-73.9875,40.8037],[-73.9889,40.8043],[-73.9886,40.8052],[-73.9875,40.8055],[-73.9857,40.8047],[-73.9861,40.8053],[-73.9856,40.806],[-73.9843,40.8055],[-73.984,40.8059],[-73.9866,40.8069],[-73.9859,40.8077],[-73.9851,40.8077],[-73.9847,40.8082],[-73.9828,40.8075],[-73.982,40.8087],[-73.9838,40.8094],[-73.9829,40.8104],[-73.985,40.8113],[-73.9841,40.8118],[-73.9807,40.8106],[-73.9804,40.8109],[-73.984,40.8125],[-73.9832,40.8135],[-73.9793,40.8121],[-73.9789,40.8125],[-73.9809,40.8133],[-73.981,40.814],[-73.9802,40.814],[-73.9797,40.8148],[-73.9747,40.8213],[-73.9734,40.8233],[-73.9738,40.8238],[-73.973,40.8238],[-73.971,40.827],[-73.9718,40.8272],[-73.9715,40.8276],[-73.9703,40.8272],[-73.9696,40.8286],[-73.9701,40.8288],[-73.9689,40.8312],[-73.9696,40.8317],[-73.9693,40.8327],[-73.9681,40.8337],[-73.9683,40.8349],[-73.9678,40.8361],[-73.9682,40.8364],[-73.9697,40.8368],[-73.9694,40.8377],[-73.9694,40.8387],[-73.9679,40.8386],[-73.9687,40.8398],[-73.9668,40.8397],[-73.9666,40.8404],[-73.9682,40.8412],[-73.9671,40.8424],[-73.9659,40.8425],[-73.9656,40.8431],[-73.961,40.8495],[-73.9597,40.8517],[-73.9592,40.852],[-73.9589,40.8554],[-73.9581,40.8562],[-73.9582,40.857],[-73.9574,40.8596],[-73.957,40.8598],[-73.9561,40.8596],[-73.9547,40.8593],[-73.9538,40.8607],[-73.9537,40.8613],[-73.9547,40.8616],[-73.9455,40.8773],[-73.9447,40.8793],[-73.9443,40.8798],[-73.9434,40.8813],[-73.9441,40.8817],[-73.9404,40.8881],[-73.9349,40.8996],[-73.9321,40.9039],[-73.9277,40.9153],[-73.9271,40.9178],[-73.9269,40.9185],[-73.9268,40.92],[-73.9265,40.9205],[-73.9255,40.9237],[-73.9257,40.9241],[-73.9255,40.9253],[-73.9245,40.9273],[-73.9244,40.9293],[-73.9237,40.9313],[-73.9235,40.9327],[-73.9233,40.9334],[-73.9232,40.9343],[-73.9228,40.9354],[-73.9225,40.937],[-73.9216,40.9383],[-73.9207,40.9392],[-73.92,40.9402],[-73.9196,40.941],[-73.919,40.9429],[-73.9184,40.9438],[-73.9179,40.9479],[-73.918,40.9489],[-73.9176,40.95],[-74.0276,40.95],[-74.028,40.9495],[-74.0278,40.949],[-74.0268,40.9484],[-74.0262,40.9489],[-74.0254,40.9491],[-74.025,40.9489],[-74.0247,40.9475],[-74.0228,40.9474],[-74.0231,40.946],[-74.0234,40.9462],[-74.0232,40.9471],[-74.0246,40.9474],[-74.0253,40.948],[-74.0253,40.9489],[-74.0258,40.9489],[-74.027,40.948],[-74.0281,40.949],[-74.0286,40.95],[-74.0827,40.95],[-74.0825,40.9491],[-74.0831,40.949],[-74.0831,40.95],[-74.1007,40.95],[-74.101,40.9495],[-74.1007,40.9488],[-74.1014,40.9482],[-74.1011,40.9473],[-74.0999,40.9469],[-74.0993,40.9465],[-74.0983,40.9466],[-74.0969,40.9457],[-74.0946,40.9446],[-74.0938,40.9426],[-74.094,40.9421],[-74.0933,40.942],[-74.0929,40.9414],[-74.0935,40.9413],[-74.0941,40.9415],[-74.0948,40.9424],[-74.0946,40.9444],[-74.0963,40.9443],[-74.097,40.9454],[-74.0981,40.9457],[-74.0985,40.9462],[-74.0998,40.9465],[-74.1001,40.9469],[-74.101,40.9472],[-74.1016,40.9481],[-74.101,40.9487],[-74.1011,40.9496],[-74.1009,40.95],[-74.146,40.95],[-74.1464,40.9484],[-74.1482,40.9423],[-74.1481,40.9422]],[[-74.1052,40.7846],[-74.1044,40.7847],[-74.1027,40.7859],[-74.1016,40.7868],[-74.101,40.7871],[-74.0999,40.7868],[-74.098,40.785],[-74.0975,40.7843],[-74.0987,40.7842],[-74.0985,40.7833],[-74.0967,40.783],[-74.0977,40.7818],[-74.0995,40.7799],[-74.1013,40.7812],[-74.1015,40.7816],[-74.1023,40.7821],[-74.1032,40.7829],[-74.1043,40.7836],[-74.1052,40.7846]],[[-74.0386,40.8369],[-74.0382,40.8378],[-74.0374,40.8382],[-74.0367,40.8391],[-74.0358,40.8391],[-74.0348,40.8378],[-74.0349,40.8373],[-74.034,40.8372],[-74.0336,40.8364],[-74.034,40.8356],[-74.0347,40.8349],[-74.0348,40.8342],[-74.0354,40.8339],[-74.0363,40.8338],[-74.0364,40.8342],[-74.0371,40.8348],[-74.0378,40.8348],[-74.0383,40.8351],[-74.0382,40.8357],[-74.0386,40.8369]],[[-74.1126,40.7577],[-74.1091,40.7585],[-74.1084,40.7579],[-74.1081,40.7587],[-74.1064,40.7591],[-74.1057,40.7591],[-74.1038,40.7592],[-74.1042,40.7586],[-74.1033,40.7585],[-74.1034,40.7591],[-74.1015,40.7593],[-74.1006,40.7586],[-74.0999,40.7571],[-74.1012,40.757],[-74.1032,40.7566],[-74.1049,40.7561],[-74.1062,40.7562],[-74.1081,40.7553],[-74.1095,40.7549],[-74.1106,40.756],[-74.11,40.7565],[-74.1111,40.7566],[-74.1126,40.7577]],[[-74.1015,40.7597],[-74.0993,40.7596],[-74.0975,40.7592],[-74.0975,40.7588],[-74.0967,40.7585],[-74.0959,40.7585],[-74.0957,40.7579],[-74.0959,40.7573],[-74.0997,40.7572],[-74.1006,40.7588],[-74.1015,40.7597]],[[-74.1078,40.7537],[-74.1064,40.7538],[-74.1059,40.7543],[-74.1059,40.7549],[-74.105,40.7549],[-74.1038,40.7545],[-74.1035,40.7551],[-74.1038,40.7555],[-74.1019,40.7564],[-74.1013,40.7565],[-74.0998,40.7564],[-74.0997,40.7554],[-74.0993,40.7553],[-74.0991,40.7541],[-74.1,40.7538],[-74.102,40.753],[-74.1028,40.7526],[-74.1039,40.7523],[-74.1038,40.7519],[-74.1046,40.7517],[-74.1053,40.7512],[-74.1063,40.752],[-74.1078,40.7536],[-74.1078,40.7537]]],[[[-73.8994,40.95],[-73.9001,40.9482],[-73.9015,40.9477],[-73.9013,40.9468],[-73.9015,40.9462],[-73.9014,40.9457],[-73.9017,40.9435],[-73.9021,40.9433],[-73.9026,40.9422],[-73.9026,40.941],[-73.902,40.9406],[-73.902,40.9402],[-73.9026,40.9399],[-73.9031,40.9376],[-73.9034,40.9374],[-73.9034,40.9365],[-73.904,40.936],[-73.9044,40.9346],[-73.9045,40.9328],[-73.9051,40.9325],[-73.9055,40.9309],[-73.905,40.9307],[-73.9048,40.9302],[-73.905,40.9291],[-73.9054,40.9291],[-73.9057,40.9274],[-73.9064,40.9271],[-73.9067,40.9266],[-73.9071,40.9255],[-73.9069,40.925],[-73.907,40.9243],[-73.9077,40.9228],[-73.9088,40.923],[-73.9091,40.9227],[-73.9105,40.9194],[-73.9101,40.9189],[-73.9113,40.9162],[-73.9103,40.9159],[-73.9105,40.9153],[-73.9025,40.913],[-73.8995,40.912],[-73.8973,40.9117],[-73.8966,40.9113],[-73.8919,40.9098],[-73.8862,40.9081],[-73.8854,40.908],[-73.883,40.9074],[-73.8792,40.9064],[-73.8779,40.9059],[-73.8679,40.903],[-73.8656,40.9021],[-73.8647,40.9018],[-73.8626,40.9015],[-73.8594,40.9004],[-73.8596,40.9022],[-73.8572,40.9029],[-73.8563,40.9062],[-73.8541,40.9067],[-73.8549,40.9082],[-73.8527,40.9099],[-73.8511,40.91],[-73.8527,40.9071],[-73.8515,40.9067],[-73.8501,40.9075],[-73.8487,40.9068],[-73.8471,40.9061],[-73.8449,40.9056],[-73.8449,40.9042],[-73.8414,40.9042],[-73.841,40.9028],[-73.8391,40.8991],[-73.8396,40.8979],[-73.8397,40.8972],[-73.8384,40.8941],[-73.8373,40.8938],[-73.824,40.8899],[-73.8232,40.8928],[-73.8228,40.8932],[-73.8212,40.8954],[-73.8212,40.8964],[-73.8208,40.8966],[-73.8208,40.8955],[-73.8195,40.8961],[-73.8187,40.8968],[-73.8183,40.8966],[-73.8199,40.8956],[-73.8211,40.895],[-73.8226,40.8928],[-73.8232,40.8912],[-73.8197,40.8902],[-73.793,40.8834],[-73.7922,40.8844],[-73.79,40.8837],[-73.789,40.8842],[-73.7881,40.8853],[-73.7883,40.8858],[-73.7878,40.8863],[-73.7871,40.8864],[-73.7869,40.8873],[-73.7862,40.8878],[-73.7859,40.8882],[-73.787,40.8885],[-73.7884,40.8882],[-73.7879,40.8888],[-73.786,40.8903],[-73.7857,40.8909],[-73.7843,40.8913],[-73.7835,40.8919],[-73.7829,40.8919],[-73.7837,40.8907],[-73.7842,40.8906],[-73.7855,40.8899],[-73.7856,40.8889],[-73.7852,40.8888],[-73.7843,40.8891],[-73.7836,40.8897],[-73.783,40.8894],[-73.7825,40.8901],[-73.782,40.8901],[-73.7818,40.8913],[-73.7812,40.8918],[-73.7815,40.8923],[-73.782,40.8922],[-73.7829,40.8928],[-73.7826,40.8933],[-73.7813,40.8932],[-73.7814,40.8926],[-73.7807,40.8928],[-73.7807,40.8934],[-73.7817,40.8937],[-73.7815,40.894],[-73.7806,40.8935],[-73.78,40.8936],[-73.7789,40.8947],[-73.7786,40.8947],[-73.7778,40.8957],[-73.7773,40.8968],[-73.777,40.8969],[-73.7769,40.8985],[-73.7773,40.8991],[-73.7769,40.9002],[-73.7765,40.9008],[-73.7752,40.901],[-73.7747,40.9018],[-73.7739,40.9009],[-73.7748,40.9005],[-73.7755,40.8998],[-73.7758,40.8987],[-73.7756,40.8983],[-73.7755,40.897],[-73.7759,40.8965],[-73.776,40.8958],[-73.7766,40.8946],[-73.7776,40.8936],[-73.7782,40.8929],[-73.778,40.8926],[-73.7783,40.8918],[-73.7788,40.8913],[-73.7797,40.8915],[-73.7802,40.8908],[-73.7801,40.89],[-73.7792,40.8895],[-73.7778,40.8897],[-73.7773,40.89],[-73.7763,40.8901],[-73.7761,40.8905],[-73.7753,40.8912],[-73.7747,40.8911],[-73.7735,40.8917],[-73.7737,40.893],[-73.7733,40.894],[-73.7724,40.8943],[-73.7717,40.8942],[-73.771,40.8949],[-73.7703,40.8943],[-73.7693,40.8951],[-73.7695,40.8962],[-73.7701,40.8967],[-73.7696,40.8975],[-73.7691,40.8977],[-73.7677,40.8978],[-73.767,40.897],[-73.7664,40.8977],[-73.7667,40.8985],[-73.7659,40.8992],[-73.7654,40.9007],[-73.7652,40.9017],[-73.7649,40.9019],[-73.7646,40.9027],[-73.7652,40.903],[-73.7663,40.9033],[-73.7674,40.9041],[-73.7684,40.9038],[-73.7691,40.9042],[-73.7694,40.9048],[-73.7694,40.9057],[-73.7689,40.9061],[-73.7686,40.9068],[-73.768,40.9066],[-73.7675,40.9069],[-73.768,40.9074],[-73.7676,40.9086],[-73.7686,40.9091],[-73.7712,40.9078],[-73.7722,40.9069],[-73.7727,40.9072],[-73.7721,40.9078],[-73.7717,40.9084],[-73.7702,40.9096],[-73.7698,40.9107],[-73.7708,40.9114],[-73.7706,40.9117],[-73.7712,40.9122],[-73.773,40.9121],[-73.7728,40.9127],[-73.7722,40.9124],[-73.7706,40.913],[-73.7704,40.9146],[-73.77,40.914],[-73.77,40.9123],[-73.7692,40.9118],[-73.7672,40.9132],[-73.7657,40.9117],[-73.7656,40.9113],[-73.7648,40.9115],[-73.7638,40.9111],[-73.7638,40.9119],[-73.7636,40.9126],[-73.763,40.913],[-73.7638,40.9133],[-73.7644,40.9132],[-73.7647,40.9137],[-73.7655,40.914],[-73.7663,40.9134],[-73.7672,40.9135],[-73.7669,40.9142],[-73.766,40.9153],[-73.7661,40.9159],[-73.765,40.916],[-73.7641,40.9169],[-73.7636,40.9167],[-73.7643,40.9157],[-73.7643,40.9153],[-73.7637,40.9147],[-73.7628,40.9149],[-73.7631,40.9139],[-73.7624,40.9136],[-73.762,40.9142],[-73.7615,40.9136],[-73.7614,40.9124],[-73.7615,40.9116],[-73.7605,40.9119],[-73.7601,40.9122],[-73.7602,40.9131],[-73.7592,40.9131],[-73.7592,40.9135],[-73.7598,40.9137],[-73.7599,40.9151],[-73.7594,40.9154],[-73.7586,40.9163],[-73.7576,40.9166],[-73.7571,40.9171],[-73.7559,40.9167],[-73.7554,40.9175],[-73.7562,40.9181],[-73.7557,40.9185],[-73.7554,40.9192],[-73.7554,40.9197],[-73.7564,40.9201],[-73.7575,40.92],[-73.7582,40.9207],[-73.7577,40.9214],[-73.7579,40.922],[-73.7571,40.9221],[-73.7573,40.9211],[-73.7577,40.9208],[-73.7575,40.9203],[-73.7563,40.9204],[-73.7553,40.9201],[-73.7548,40.9192],[-73.7552,40.9186],[-73.755,40.9183],[-73.7554,40.9179],[-73.7549,40.9173],[-73.7543,40.9171],[-73.7545,40.9156],[-73.7542,40.914],[-73.7548,40.9138],[-73.7559,40.9137],[-73.7568,40.9135],[-73.7577,40.9129],[-73.7585,40.912],[-73.7595,40.9113],[-73.7597,40.9103],[-73.7607,40.9097],[-73.761,40.9088],[-73.7602,40.9084],[-73.7603,40.909],[-73.7593,40.9103],[-73.7576,40.9116],[-73.7565,40.9129],[-73.756,40.9133],[-73.7552,40.9136],[-73.7545,40.9135],[-73.7506,40.9151],[-73.7503,40.9156],[-73.7492,40.9161],[-73.7484,40.9159],[-73.7487,40.9171],[-73.7481,40.9176],[-73.7469,40.9175],[-73.7465,40.9167],[-73.7454,40.9173],[-73.7438,40.9178],[-73.7438,40.9199],[-73.7444,40.9201],[-73.744,40.9205],[-73.7439,40.9211],[-73.7439,40.9221],[-73.7442,40.9227],[-73.745,40.9225],[-73.7451,40.9233],[-73.7436,40.9247],[-73.7438,40.9254],[-73.7448,40.926],[-73.7441,40.9264],[-73.7434,40.9274],[-73.7436,40.9278],[-73.7445,40.9275],[-73.7457,40.9265],[-73.7454,40.9274],[-73.7447,40.9278],[-73.7448,40.9284],[-73.7459,40.929],[-73.7458,40.9296],[-73.7452,40.9295],[-73.7452,40.9288],[-73.7443,40.9287],[-73.7429,40.9308],[-73.7427,40.9322],[-73.7423,40.9311],[-73.7426,40.9304],[-73.7426,40.93],[-73.7433,40.9296],[-73.7439,40.9287],[-73.7435,40.9279],[-73.7423,40.9279],[-73.7421,40.9277],[-73.7411,40.9281],[-73.741,40.9285],[-73.7401,40.929],[-73.74,40.9295],[-73.7394,40.9299],[-73.7385,40.9296],[-73.7376,40.9301],[-73.7378,40.9304],[-73.7366,40.9307],[-73.737,40.931],[-73.7369,40.9317],[-73.7376,40.9324],[-73.7388,40.9324],[-73.7388,40.9328],[-73.7377,40.9328],[-73.737,40.9321],[-73.736,40.9325],[-73.7365,40.9316],[-73.7356,40.9317],[-73.7358,40.9322],[-73.7339,40.933],[-73.7337,40.9327],[-73.734,40.9321],[-73.7347,40.9319],[-73.7351,40.9313],[-73.7359,40.9311],[-73.7357,40.9303],[-73.7368,40.9295],[-73.738,40.928],[-73.7368,40.9283],[-73.7359,40.929],[-73.7348,40.9292],[-73.734,40.9295],[-73.7324,40.9307],[-73.732,40.9315],[-73.7315,40.9309],[-73.7315,40.9301],[-73.7308,40.9296],[-73.7307,40.9287],[-73.7321,40.9285],[-73.7332,40.9281],[-73.7335,40.9282],[-73.7334,40.929],[-73.7342,40.9288],[-73.7341,40.9285],[-73.7344,40.9273],[-73.7348,40.9261],[-73.7353,40.9252],[-73.7353,40.9239],[-73.7355,40.9233],[-73.7344,40.9215],[-73.7337,40.9221],[-73.7333,40.9233],[-73.7331,40.9235],[-73.7329,40.9243],[-73.7322,40.9247],[-73.7321,40.9258],[-73.7325,40.9271],[-73.7316,40.9282],[-73.7302,40.9283],[-73.729,40.928],[-73.7277,40.9273],[-73.7272,40.9274],[-73.725,40.9292],[-73.725,40.9305],[-73.7252,40.9309],[-73.7248,40.9313],[-73.7239,40.931],[-73.7235,40.9306],[-73.7225,40.9314],[-73.7228,40.9318],[-73.7236,40.9312],[-73.7246,40.9314],[-73.7247,40.9318],[-73.7237,40.9326],[-73.7231,40.9332],[-73.7232,40.9345],[-73.7237,40.9351],[-73.7234,40.9365],[-73.7227,40.9369],[-73.7224,40.9377],[-73.7214,40.9384],[-73.7233,40.939],[-73.7236,40.9395],[-73.7241,40.9396],[-73.7255,40.9402],[-73.7262,40.941],[-73.7269,40.9408],[-73.7274,40.9409],[-73.7279,40.9414],[-73.7301,40.9413],[-73.7306,40.9415],[-73.7315,40.9414],[-73.7317,40.942],[-73.7333,40.9425],[-73.7346,40.9431],[-73.7373,40.943],[-73.7377,40.9437],[-73.7365,40.9447],[-73.7359,40.9449],[-73.735,40.9447],[-73.7338,40.944],[-73.7327,40.9434],[-73.732,40.9434],[-73.7303,40.943],[-73.73,40.943],[-73.7293,40.9448],[-73.7297,40.9455],[-73.7315,40.9463],[-73.732,40.9469],[-73.7324,40.9485],[-73.7317,40.9478],[-73.7312,40.9481],[-73.7299,40.9484],[-73.729,40.9481],[-73.7287,40.9485],[-73.7265,40.9495],[-73.7256,40.9496],[-73.7249,40.95],[-73.7737,40.95],[-73.7744,40.9496],[-73.7748,40.9487],[-73.7751,40.9489],[-73.775,40.9496],[-73.7747,40.95],[-73.8994,40.95]],[[-73.8729,40.9128],[-73.8726,40.9138],[-73.8723,40.9154],[-73.8722,40.9158],[-73.8705,40.9172],[-73.8694,40.9169],[-73.8674,40.9134],[-73.8664,40.9111],[-73.866,40.9102],[-73.8666,40.9093],[-73.8675,40.9077],[-73.8683,40.9076],[-73.8689,40.9079],[-73.8695,40.9088],[-73.8713,40.9109],[-73.8727,40.9124],[-73.8729,40.9128]]],[[[-73.7242,40.95],[-73.7256,40.9492],[-73.7264,40.9489],[-73.7271,40.9485],[-73.7277,40.9478],[-73.7278,40.9457],[-73.7281,40.9449],[-73.7276,40.944],[-73.7271,40.9438],[-73.7266,40.9429],[-73.7266,40.9423],[-73.7263,40.942],[-73.7257,40.9425],[-73.7249,40.9427],[-73.7243,40.942],[-73.7238,40.9423],[-73.7227,40.9421],[-73.7219,40.9417],[-73.7213,40.9422],[-73.7204,40.9421],[-73.72,40.9428],[-73.7194,40.9435],[-73.7186,40.9432],[-73.7185,40.943],[-73.7178,40.9432],[-73.7162,40.9448],[-73.7166,40.945],[-73.7172,40.9446],[-73.7175,40.9439],[-73.7184,40.9432],[-73.7192,40.9436],[-73.7186,40.9455],[-73.7178,40.9461],[-73.717,40.9457],[-73.7169,40.9462],[-73.7165,40.947],[-73.717,40.9472],[-73.7175,40.9466],[-73.7183,40.9473],[-73.7177,40.9478],[-73.7169,40.948],[-73.7156,40.948],[-73.7148,40.9491],[-73.7142,40.9485],[-73.7148,40.9479],[-73.7143,40.947],[-73.712,40.9459],[-73.7123,40.9455],[-73.7131,40.9457],[-73.7144,40.9463],[-73.7152,40.9467],[-73.7159,40.9463],[-73.7163,40.9458],[-73.716,40.9454],[-73.7146,40.9453],[-73.7138,40.9446],[-73.7107,40.9447],[-73.7096,40.9452],[-73.7077,40.9445],[-73.7075,40.9451],[-73.7064,40.9452],[-73.705,40.9464],[-73.7052,40.9468],[-73.7042,40.9472],[-73.7031,40.9485],[-73.7028,40.9491],[-73.7021,40.9494],[-73.7016,40.9484],[-73.7019,40.9475],[-73.7023,40.9472],[-73.7023,40.9466],[-73.7016,40.9462],[-73.7012,40.9468],[-73.7012,40.9472],[-73.7004,40.9479],[-73.7001,40.9479],[-73.6995,40.9488],[-73.6995,40.9498],[-73.6986,40.95],[-73.7242,40.95]]],[[[-73.7796,40.8868],[-73.779,40.8875],[-73.7801,40.888],[-73.78,40.8886],[-73.7806,40.889],[-73.7813,40.8886],[-73.7831,40.8883],[-73.7837,40.8877],[-73.7862,40.8862],[-73.786,40.8856],[-73.7863,40.8853],[-73.7864,40.8842],[-73.7867,40.8836],[-73.7862,40.8826],[-73.7851,40.8821],[-73.7839,40.8817],[-73.7831,40.882],[-73.7813,40.8854],[-73.7822,40.8846],[-73.7829,40.8845],[-73.7828,40.8854],[-73.7822,40.8861],[-73.7812,40.8866],[-73.7796,40.8868]]],[[[-73.7682,40.8826],[-73.7682,40.8832],[-73.7676,40.8843],[-73.7671,40.8858],[-73.7673,40.8862],[-73.7704,40.8878],[-73.7711,40.8875],[-73.772,40.8845],[-73.7734,40.8835],[-73.774,40.8826],[-73.7699,40.88],[-73.7677,40.881],[-73.7682,40.8826]]],[[[-73.6937,40.9426],[-73.6947,40.9428],[-73.6947,40.9434],[-73.6941,40.9441],[-73.6928,40.9442],[-73.6924,40.9448],[-73.6917,40.945],[-73.6915,40.9445],[-73.691,40.9445],[-73.6865,40.9452],[-73.6857,40.9478],[-73.6867,40.9481],[-73.6876,40.9482],[-73.6879,40.9486],[-73.6863,40.9488],[-73.686,40.9494],[-73.6849,40.95],[-73.6933,40.95],[-73.6936,40.9486],[-73.6942,40.9476],[-73.6947,40.9461],[-73.6951,40.9455],[-73.6956,40.9442],[-73.6966,40.943],[-73.6965,40.9426],[-73.6972,40.9413],[-73.698,40.9405],[-73.6981,40.9402],[-73.6972,40.9398],[-73.696,40.9399],[-73.6949,40.9408],[-73.6953,40.9412],[-73.6951,40.9419],[-73.6947,40.9422],[-73.694,40.9422],[-73.6937,40.9426]]],[[[-74.0849,40.7872],[-74.0844,40.7872],[-74.0836,40.7882],[-74.0822,40.7893],[-74.0815,40.7908],[-74.0813,40.7928],[-74.0802,40.795],[-74.0798,40.7955],[-74.0791,40.7961],[-74.0784,40.7962],[-74.0771,40.7968],[-74.0764,40.7975],[-74.0758,40.7978],[-74.0755,40.7985],[-74.0758,40.7993],[-74.0765,40.7999],[-74.0774,40.8004],[-74.0781,40.8011],[-74.0798,40.8023],[-74.0808,40.8028],[-74.0824,40.8041],[-74.0844,40.8053],[-74.0863,40.8066],[-74.0892,40.8081],[-74.0909,40.8096],[-74.0914,40.8105],[-74.093,40.81],[-74.0938,40.8092],[-74.094,40.8078],[-74.0938,40.8053],[-74.0945,40.8037],[-74.0946,40.8031],[-74.0942,40.8028],[-74.0933,40.8025],[-74.0926,40.8019],[-74.0926,40.8011],[-74.0929,40.8006],[-74.0932,40.7996],[-74.0939,40.7984],[-74.0947,40.7976],[-74.096,40.7968],[-74.0963,40.7963],[-74.0931,40.794],[-74.0925,40.7937],[-74.0915,40.7937],[-74.0896,40.7943],[-74.0889,40.7952],[-74.0897,40.7956],[-74.0893,40.7961],[-74.0881,40.7959],[-74.0884,40.7965],[-74.0893,40.7967],[-74.0893,40.7972],[-74.0885,40.7973],[-74.0885,40.7976],[-74.0894,40.7979],[-74.09,40.7985],[-74.0893,40.7986],[-74.0878,40.7986],[-74.0883,40.7992],[-74.088,40.7993],[-74.0877,40.7985],[-74.0889,40.7984],[-74.0896,40.7981],[-74.0884,40.7977],[-74.0883,40.7972],[-74.0893,40.7969],[-74.088,40.7965],[-74.0877,40.7959],[-74.0891,40.7955],[-74.0885,40.795],[-74.0891,40.7942],[-74.0913,40.7933],[-74.09,40.7927],[-74.0898,40.792],[-74.0906,40.7904],[-74.0913,40.7887],[-74.0911,40.7882],[-74.09,40.7878],[-74.0885,40.7878],[-74.0856,40.7872],[-74.0849,40.7872]]],[[[-73.691,40.6102],[-73.6914,40.6092],[-73.6913,40.6071],[-73.6907,40.6062],[-73.6902,40.605],[-73.6898,40.6047],[-73.6889,40.6046],[-73.6865,40.6049],[-73.6848,40.6044],[-73.6844,40.6045],[-73.6854,40.606],[-73.6869,40.6083],[-73.6871,40.6085],[-73.6849,40.6098],[-73.6855,40.6104],[-73.686,40.6119],[-73.6858,40.6138],[-73.6851,40.6155],[-73.6848,40.6159],[-73.6835,40.6168],[-73.6831,40.6173],[-73.6829,40.6185],[-73.6836,40.6208],[-73.684,40.6215],[-73.6845,40.6215],[-73.6865,40.6205],[-73.6879,40.6202],[-73.6886,40.621],[-73.6886,40.6225],[-73.6888,40.6226],[-73.6929,40.6222],[-73.6943,40.6216],[-73.6956,40.6203],[-73.6959,40.6196],[-73.6956,40.6191],[-73.6956,40.6168],[-73.695,40.6162],[-73.6941,40.6155],[-73.693,40.6135],[-73.6912,40.612],[-73.6908,40.6107],[-73.691,40.6102]]],[[[-73.7037,40.6031],[-73.7034,40.6031],[-73.7021,40.6036],[-73.7008,40.6041],[-73.6993,40.6048],[-73.6964,40.6061],[-73.6946,40.6063],[-73.6939,40.6083],[-73.6933,40.6106],[-73.6943,40.6112],[-73.6952,40.6109],[-73.6959,40.6101],[-73.6959,40.6096],[-73.697,40.6091],[-73.6986,40.6091],[-73.6992,40.6087],[-73.699,40.6075],[-73.6997,40.6067],[-73.7023,40.6061],[-73.7024,40.6053],[-73.7029,40.6051],[-73.703,40.6044],[-73.7036,40.6037],[-73.7037,40.6031]]],[[[-73.6765,40.6173],[-73.6768,40.6182],[-73.6774,40.6182],[-73.6796,40.6175],[-73.6796,40.617],[-73.6802,40.6168],[-73.6801,40.6152],[-73.6804,40.6146],[-73.6813,40.6133],[-73.6816,40.6125],[-73.6817,40.6116],[-73.6805,40.6096],[-73.6799,40.6075],[-73.6794,40.6072],[-73.6786,40.6077],[-73.678,40.6089],[-73.678,40.6103],[-73.6779,40.6114],[-73.6772,40.6133],[-73.6765,40.6142],[-73.6764,40.6156],[-73.6765,40.6173]]],[[[-73.6623,40.6017],[-73.6619,40.6055],[-73.6627,40.6058],[-73.6643,40.6061],[-73.6651,40.6059],[-73.6671,40.6051],[-73.6687,40.6047],[-73.669,40.6044],[-73.6692,40.6032],[-73.6693,40.6025],[-73.669,40.6016],[-73.6685,40.6008],[-73.6677,40.6003],[-73.6668,40.5995],[-73.6655,40.5976],[-73.6641,40.5967],[-73.6624,40.5968],[-73.6622,40.5973],[-73.6626,40.5979],[-73.6625,40.6003],[-73.6623,40.6017]]],[[[-73.6813,40.5972],[-73.6808,40.5964],[-73.6803,40.5962],[-73.6783,40.5966],[-73.6778,40.597],[-73.68,40.5983],[-73.6811,40.5984],[-73.6814,40.598],[-73.6813,40.5972]]],[[[-73.6762,40.6026],[-73.6759,40.6022],[-73.6747,40.6037],[-73.6712,40.6051],[-73.6672,40.6072],[-73.672,40.6103],[-73.6725,40.6101],[-73.6758,40.6054],[-73.6767,40.603],[-73.6762,40.6026]]],[[[-73.6759,40.6019],[-73.6743,40.6018],[-73.6738,40.6011],[-73.6739,40.6002],[-73.6749,40.5981],[-73.6736,40.5972],[-73.6715,40.5972],[-73.6724,40.6016],[-73.671,40.6048],[-73.6743,40.6033],[-73.6759,40.6019]]],[[[-73.6733,40.613],[-73.6727,40.6127],[-73.6698,40.6123],[-73.6689,40.6123],[-73.6683,40.6117],[-73.6674,40.6117],[-73.667,40.6124],[-73.6668,40.6135],[-73.6665,40.6142],[-73.6656,40.6154],[-73.6649,40.616],[-73.6642,40.6165],[-73.6621,40.6173],[-73.6613,40.6178],[-73.6615,40.6195],[-73.6619,40.6215],[-73.6622,40.6218],[-73.6656,40.6219],[-73.666,40.6218],[-73.6667,40.6207],[-73.6675,40.6202],[-73.6692,40.6193],[-73.6699,40.6186],[-73.6721,40.6167],[-73.6733,40.6137],[-73.6733,40.613]]],[[[-73.6702,40.5988],[-73.6697,40.5975],[-73.6679,40.5962],[-73.6673,40.5959],[-73.6663,40.5962],[-73.666,40.597],[-73.6666,40.5975],[-73.668,40.5992],[-73.669,40.6],[-73.6697,40.6001],[-73.6702,40.5997],[-73.6702,40.5988]]],[[[-73.666,40.6085],[-73.6658,40.6079],[-73.6651,40.6076],[-73.6622,40.6079],[-73.6587,40.6081],[-73.6582,40.6083],[-73.6581,40.6089],[-73.6591,40.6096],[-73.6596,40.6097],[-73.6605,40.6104],[-73.6612,40.6113],[-73.6615,40.612],[-73.6614,40.613],[-73.6603,40.6142],[-73.66,40.6156],[-73.6606,40.6157],[-73.662,40.6153],[-73.6632,40.6146],[-73.664,40.613],[-73.6643,40.611],[-73.6645,40.6105],[-73.6658,40.6089],[-73.666,40.6085]]],[[[-73.6604,40.612],[-73.6587,40.6109],[-73.657,40.6094],[-73.656,40.6098],[-73.6544,40.6115],[-73.6542,40.6119],[-73.6539,40.617],[-73.6542,40.6177],[-73.6551,40.6177],[-73.6557,40.6171],[-73.6553,40.6157],[-73.6554,40.6148],[-73.6564,40.6141],[-73.6572,40.6138],[-73.6591,40.6138],[-73.6594,40.6133],[-73.6604,40.6128],[-73.6604,40.612]]],[[[-73.6601,40.6218],[-73.6597,40.6208],[-73.6596,40.6199],[-73.6599,40.6193],[-73.6597,40.618],[-73.6568,40.6196],[-73.658,40.6163],[-73.6587,40.6141],[-73.6565,40.6156],[-73.6557,40.6188],[-73.6554,40.6179],[-73.6544,40.6182],[-73.6547,40.6188],[-73.6551,40.6201],[-73.6557,40.6211],[-73.6564,40.6218],[-73.6576,40.6225],[-73.66,40.6225],[-73.6601,40.6218]]]]},"properties":null,"id":0}
]}